connections,country_name,code,gdp_percapita,incoming,iso3_digit_code,lat,long,outgoing
"['Sri Lanka', 'Malaysia', 'Algeria', 'Dominica', 'Ecuador', 'Haiti', 'Jordan', 'South Korea', 'Seychelles', 'Madagascar', 'Maldives', 'Nepal', 'Bangladesh', 'Tajikistan', 'Tanzania', 'Timor-Leste', 'Uganda', 'Cambodia', 'Cape Verde', 'Comoros', 'Djibouti', 'Iran', 'Kenya', 'Armenia', 'Laos']",Yemen,YEM,1473.1,990000,887,15.552727,48.516388,0
"['Barbados', 'Peru', 'Bahamas', 'Hong Kong', 'Ireland', 'Kenya', 'Bangladesh', 'Bolivia', 'Botswana', 'Chile', 'Colombia', 'Guatemala', 'Malawi', 'Nicaragua', 'Antigua and Barbuda', 'Belize', 'Malaysia', 'Costa Rica', 'Egypt', 'Indonesia', 'South Korea', 'Dominica', 'Philippines']",Fiji,FJI,7750.43,658000,242,-16.578193,179.414413,0
"['Barbados', 'Canada', 'Dominica', 'United Kingdom', 'Peru', 'Panama', 'Fiji', 'Bahamas', 'Honduras', 'Hong Kong', 'Ireland', 'Kenya', 'New Zealand', 'Austria', 'Belgium', 'Czech Republic', 'Denmark', 'Estonia', 'Finland', 'France', 'Germany', 'Greece', 'Hungary', 'Iceland', 'Italy', 'Latvia', 'Liechtenstein', 'Lithuania', 'Luxembourg', 'Malta', 'Netherlands', 'Norway', 'Poland', 'Portugal', 'Slovakia', 'Slovenia', 'Spain', 'Sweden', 'Switzerland', 'Bolivia', 'Bosnia and Herzegovina', 'Botswana', 'Chile', 'Colombia', 'Guatemala', 'Malawi', 'Nicaragua', 'Antigua and Barbuda', 'Belize', 'Malaysia', 'Egypt', 'Indonesia', 'South Korea', 'Thailand', 'Ukraine', 'United Arab Emirates', 'Philippines', 'Bahrain', 'Japan']",Brunei,BRN,71776.65,225000,96,4.535277,114.727669,0
"['Peru', 'Panama', 'Argentina', 'Bahamas', 'Ireland', 'Kenya', 'Uruguay', 'Brazil', 'Chile', 'Colombia', 'Paraguay', 'Serbia', 'Venezuela', 'Hong Kong', 'Malaysia', 'Costa Rica', 'Egypt', 'South Africa', 'Dominica', 'Philippines']",Bolivia,BOL,6131.06,798000,68,-16.290154,-63.588653,837000
"['Kenya', 'Kuwait', 'Venezuela', 'Malaysia', 'Egypt', 'Indonesia', 'Dominica', 'Philippines', 'Brunei', 'Thailand']",Cambodia,KHM,1006.84,2882000,116,12.565679,104.990963,710000
"['Sri Lanka', 'Lithuania', 'Luxembourg', 'Malta', 'Netherlands', 'Austria', 'Norway', 'Poland', 'Portugal', 'Romania', 'Slovenia', 'Slovakia', 'Spain', 'Sweden', 'Switzerland', 'United Kingdom', 'Belgium', 'Bulgaria', 'Croatia', 'Cyprus', 'Czech Republic', 'Denmark', 'Estonia', 'Finland', 'France', 'Germany', 'Greece', 'Hungary', 'Iceland', 'Ireland', 'Italy', 'Latvia', 'Australia', 'United States', 'Lesotho', 'Macedonia', 'Malaysia', 'Armenia', 'Mauritius', 'Mexico', 'Moldova', 'Morocco', 'New Zealand', 'Nicaragua', 'Panama', 'Paraguay', 'Peru', 'Philippines', 'Bahamas', 'Serbia', 'Singapore', 'South Africa', 'Thailand', 'Barbados', 'Tunisia', 'Turkey', 'Ukraine', 'Uruguay', 'Venezuela', 'Belize', 'Bolivia', 'Bosnia and Herzegovina', 'Botswana', 'Brazil', 'Brunei', 'Canada', 'Chile', 'Colombia', 'Costa Rica', 'Albania', 'Dominica', 'Dominican Republic', 'Ecuador', 'Fiji', 'Gambia', 'Georgia', 'Andorra', 'Grenada', 'Guatemala', 'Haiti', 'Honduras', 'Israel', 'Jamaica', 'Japan', 'Antigua and Barbuda', 'South Korea', 'Kyrgyzstan', 'Argentina', 'United Arab Emirates', 'Seychelles', 'Lebanon', 'Madagascar', 'Maldives', 'Nepal', 'Oman', 'Papua New Guinea', 'Qatar', 'Bahrain', 'Bangladesh', 'Tajikistan', 'Tanzania', 'Timor-Leste', 'Uganda', 'Zimbabwe', 'Burkina Faso', 'Cambodia', 'Cape Verde', 'Comoros', 'Djibouti', 'Egypt', 'Indonesia', 'Iran', 'Jordan', 'Kenya', 'Kuwait', 'Laos']",Liechtenstein,,0,52000,438,47.166,9.555373,0
"['Botswana', 'Cape Verde', 'Comoros', 'Djibouti', 'Egypt', 'Gambia', 'Kenya', 'Lesotho', 'Madagascar', 'Malawi', 'Seychelles', 'Swaziland', 'Tanzania', 'Uganda', 'Zimbabwe', 'Antigua and Barbuda', 'Bahamas', 'Belize', 'Bermuda', 'British Virgin Islands', 'Canada', 'Cayman Islands', 'Dominica', 'Ecuador', 'Grenada', 'Haiti', 'Jamaica', 'Armenia', 'Bangladesh', 'Cambodia', 'Georgia', 'Hong Kong', 'Laos', 'Macau', 'Malaysia', 'Maldives', 'Nepal', 'Philippines', 'Singapore', 'Timor-Leste', 'Gibraltar', 'United Kingdom', 'Fiji']",Papua New Guinea,PNG,2105.3,174000,598,-6.314993,143.95555,619000
"['Austria', 'Belgium', 'Bulgaria', 'Cyprus', 'Denmark', 'Estonia', 'Finland', 'France', 'Germany', 'Greece', 'Hungary', 'Iceland', 'Ireland', 'Italy', 'Latvia', 'Liechtenstein', 'Lithuania', 'Luxembourg', 'Malta', 'Netherlands', 'Norway', 'Poland', 'Portugal', 'Romania', 'Slovakia', 'Slovenia', 'Spain', 'Sweden', 'Switzerland', 'United Kingdom', 'Peru', 'Mexico', 'Panama', 'Fiji', 'Antigua and Barbuda', 'Argentina', 'Bahamas', 'Barbados', 'Honduras', 'Hong Kong', 'Kenya', 'Malaysia', 'Morocco', 'New Zealand', 'Uruguay', 'Albania', 'Bangladesh', 'Bolivia', 'Bosnia and Herzegovina', 'Botswana', 'Brazil', 'Brunei', 'Chile', 'Colombia', 'Costa Rica', 'Guatemala', 'Japan', 'Moldova', 'Paraguay', 'Serbia', 'South Africa', 'South Korea', 'Ukraine', 'Venezuela', 'Belize', 'Lebanon']",Czech Republic,CZE,29017.84,9004000,203,49.817492,15.472962,5304000
"['Benin', 'Kenya', 'Niger', 'Cameroon', 'Malaysia', 'Dominica', 'Philippines', 'Hong Kong']",Chad,TCD,1053.66,71000,148,15.454166,18.732207,0
"['Dominica', 'Bolivia', 'Botswana', 'Philippines']",Cameroon,CMR,2830.13,912000,120,7.369722,12.354722,0
"['Barbados', 'Dominica', 'South Korea', 'United Kingdom', 'Peru', 'Mexico', 'Panama', 'Fiji', 'Argentina', 'Bahamas', 'Guyana', 'Honduras', 'Hong Kong', 'Ireland', 'Japan', 'Kenya', 'Kuwait', 'Malaysia', 'Morocco', 'New Zealand', 'Turkey', 'Uruguay', 'Austria', 'Belgium', 'Czech Republic', 'Denmark', 'Estonia', 'Finland', 'France', 'Germany', 'Greece', 'Hungary', 'Iceland', 'Italy', 'Latvia', 'Liechtenstein', 'Lithuania', 'Luxembourg', 'Malta', 'Netherlands', 'Norway', 'Poland', 'Portugal', 'Slovakia', 'Slovenia', 'Spain', 'Sweden', 'Switzerland', 'Albania', 'Bangladesh', 'Bolivia', 'Bosnia and Herzegovina', 'Botswana', 'Colombia', 'Costa Rica', 'Guatemala', 'Malawi', 'Moldova', 'Serbia', 'South Africa', 'Ukraine', 'Venezuela', 'Antigua and Barbuda', 'Belize', 'Lebanon', 'Egypt', 'Indonesia', 'Thailand', 'Philippines', 'Bahrain', 'Brunei']",Canada,CAN,42752.66,16590000,124,56.130366,-106.346771,32977000
"['Antigua and Barbuda', 'Armenia', 'Azerbaijan', 'Bahamas', 'Bangladesh', 'Barbados', 'Belarus', 'Belize', 'Bermuda', 'Botswana', 'British Virgin Islands', 'Cambodia', 'Cayman Islands', 'Comoros', 'Djibouti', 'Dominica', 'Timor-Leste', 'Ecuador', 'Egypt', 'Fiji', 'Georgia', 'Gibraltar', 'Grenada', 'Haiti', 'Iraq', 'Ireland', 'Israel', 'Jamaica', 'Japan', 'Jordan', 'Kenya', 'Kiribati', 'Laos', 'Macau', 'Madagascar', 'Malawi', 'Malaysia', 'Maldives', 'Mauritius', 'Nepal', 'Nicaragua', 'Philippines', 'Seychelles', 'Singapore', 'South Africa', 'South Korea', 'Swaziland', 'Tanzania', 'Uganda', 'United Kingdom', 'Zimbabwe']",Lesotho,LSO,1125.6,433000,426,-29.609988,28.233608,0
"['United Kingdom', 'Peru', 'Mexico', 'Panama', 'Fiji', 'Argentina', 'Bahamas', 'Honduras', 'Hong Kong', 'Ireland', 'Japan', 'Morocco', 'New Zealand', 'Uruguay', 'Austria', 'Belgium', 'Czech Republic', 'Denmark', 'Estonia', 'Finland', 'France', 'Germany', 'Greece', 'Hungary', 'Iceland', 'Italy', 'Latvia', 'Liechtenstein', 'Lithuania', 'Luxembourg', 'Malta', 'Netherlands', 'Norway', 'Poland', 'Portugal', 'Slovakia', 'Slovenia', 'Spain', 'Sweden', 'Switzerland', 'Albania', 'Bangladesh', 'Barbados', 'Bolivia', 'Bosnia and Herzegovina', 'Botswana', 'Brazil', 'Colombia', 'Costa Rica', 'Guatemala', 'Paraguay', 'Russia', 'Serbia', 'South Africa', 'South Korea', 'Thailand', 'Venezuela', 'Antigua and Barbuda', 'Belize', 'Lebanon', 'Malaysia', 'Egypt', 'Indonesia', 'Dominica', 'Philippines']",Chile,CHL,21942.15,3576000,152,-35.675147,-71.542969,2999000
"['Barbados', 'Dominica', 'Fiji', 'Bahamas', 'Kenya', 'Bolivia', 'Botswana', 'Malawi', 'Belize', 'Malaysia', 'Philippines']",Uganda,UGA,657.37,1206000,800,1.373333,32.290275,378000
"['Sri Lanka', 'Zimbabwe', 'Colombia', 'Cuba', 'Macau', 'Malaysia', 'Turkey', 'Dominica', 'Ecuador', 'Georgia', 'Haiti', 'Jordan', 'Seychelles', 'Madagascar', 'Maldives', 'Mauritius', 'Nepal', 'Oman', 'Bangladesh', 'Tajikistan', 'Timor-Leste', 'Uganda', 'Bolivia', 'Cambodia', 'Cape Verde', 'Comoros', 'Djibouti', 'Guyana', 'Iran', 'Iraq', 'Laos', 'Armenia']",Lebanon,LBN,9928,1274000,422,33.854721,35.862285,0
"['Sri Lanka', 'Latvia', 'Liechtenstein', 'Lithuania', 'Luxembourg', 'Austria', 'Netherlands', 'Norway', 'Poland', 'Portugal', 'Romania', 'Slovakia', 'Slovenia', 'Spain', 'Sweden', 'Switzerland', 'Belgium', 'United Kingdom', 'Bulgaria', 'Croatia', 'Cyprus', 'Czech Republic', 'Denmark', 'Estonia', 'Finland', 'France', 'Germany', 'Greece', 'Hungary', 'Malta', 'Iceland', 'Ireland', 'Australia', 'United States', 'Kyrgyzstan', 'Lesotho', 'Macedonia', 'Malawi', 'Malaysia', 'Mauritius', 'Mexico', 'Moldova', 'Morocco', 'Bahamas', 'New Zealand', 'Nicaragua', 'Panama', 'Paraguay', 'Peru', 'Philippines', 'Barbados', 'Serbia', 'Singapore', 'South Africa', 'Swaziland', 'Thailand', 'Tunisia', 'Turkey', 'Ukraine', 'Belize', 'Uruguay', 'Venezuela', 'Bolivia', 'Bosnia and Herzegovina', 'Botswana', 'Brazil', 'Brunei', 'Albania', 'Canada', 'Chile', 'Colombia', 'Costa Rica', 'Andorra', 'Dominica', 'Dominican Republic', 'Ecuador', 'Fiji', 'Gambia', 'Georgia', 'Antigua and Barbuda', 'Grenada', 'Guatemala', 'Guyana', 'Haiti', 'Honduras', 'Argentina', 'Israel', 'Jamaica', 'Armenia', 'Japan', 'Kazakhstan', 'Kiribati', 'South Korea', 'Maldives', 'Papua New Guinea', 'United Arab Emirates', 'Seychelles', 'Laos', 'Lebanon', 'Madagascar', 'Nepal', 'Bahrain', 'Oman', 'Bangladesh', 'Qatar', 'Tajikistan', 'Tanzania', 'Timor-Leste', 'Uganda', 'Zimbabwe', 'Burkina Faso', 'Cambodia', 'Cape Verde', 'Comoros', 'Djibouti', 'Egypt', 'Ethiopia', 'Indonesia', 'Iran', 'Jordan', 'Kenya', 'Kuwait']",Italy,ITA,35685.6,47704000,380,41.87194,12.56738,29060000
"['Austria', 'Belgium', 'Bulgaria', 'Czech Republic', 'Denmark', 'Estonia', 'Finland', 'France', 'Germany', 'Greece', 'Hungary', 'Iceland', 'Ireland', 'Italy', 'Latvia', 'Liechtenstein', 'Lithuania', 'Luxembourg', 'Malta', 'Netherlands', 'Norway', 'Poland', 'Portugal', 'Romania', 'Slovakia', 'Slovenia', 'Spain', 'Sweden', 'Switzerland', 'United Kingdom', 'Canada', 'Dominica', 'Peru', 'Mexico', 'Panama', 'Fiji', 'Antigua and Barbuda', 'Argentina', 'Bahamas', 'Barbados', 'Honduras', 'Hong Kong', 'Japan', 'Kenya', 'Malaysia', 'Morocco', 'New Zealand', 'Uruguay', 'Albania', 'Bangladesh', 'Bolivia', 'Bosnia and Herzegovina', 'Botswana', 'Brunei', 'Chile', 'Colombia', 'Costa Rica', 'Guatemala', 'Malawi', 'Moldova', 'Nicaragua', 'Paraguay', 'Serbia', 'Ukraine', 'Venezuela', 'Belize', 'Lebanon']",Cyprus,CYP,28224.46,2405000,196,35.126413,33.429859,1026000
"['Austria', 'Belgium', 'Bulgaria', 'Cyprus', 'Denmark', 'Estonia', 'Finland', 'France', 'Germany', 'Greece', 'Hungary', 'Iceland', 'Ireland', 'Italy', 'Latvia', 'Liechtenstein', 'Lithuania', 'Luxembourg', 'Malta', 'Netherlands', 'Norway', 'Poland', 'Portugal', 'Romania', 'Slovakia', 'Spain', 'Sweden', 'Switzerland', 'Canada', 'Peru', 'Mexico', 'Panama', 'Fiji', 'Argentina', 'Bahamas', 'Barbados', 'Honduras', 'Japan', 'Kenya', 'Kuwait', 'Malaysia', 'Morocco', 'Uruguay', 'Albania', 'Bangladesh', 'Bolivia', 'Botswana', 'Brazil', 'Brunei', 'Chile', 'Colombia', 'Guatemala', 'Moldova', 'Nicaragua', 'Paraguay', 'Serbia', 'Ukraine', 'Venezuela', 'Lebanon', 'Egypt', 'Indonesia', 'Thailand', 'Dominica', 'Philippines']",Slovenia,SVN,23295.34,2259000,705,46.151241,14.995463,2612000
"['Kenya', 'Bolivia', 'Bosnia and Herzegovina', 'Chile', 'Serbia', 'Antigua and Barbuda', 'Egypt', 'South Korea', 'Barbados', 'Dominica', 'Hong Kong']",Albania,ALB,9930.94,2857000,8,41.153332,20.168331,3928000
"['Barbados', 'Canada', 'Dominica', 'Fiji', 'Bahamas', 'Ireland', 'Kenya', 'Kuwait', 'Bolivia', 'Botswana', 'Malawi', 'Belize', 'Malaysia', 'Philippines']",Swaziland,SWZ,3034.22,968000,748,-26.522503,31.465866,1573000
"['Kenya', 'Bolivia', 'Dominica', 'Philippines']",Eritrea,ERI,1195.68,107000,232,15.179384,39.782334,0
"['India', 'Sri Lanka', 'United Kingdom', 'Turkey', 'Qatar', 'Saudi Arabia', 'Bahrain', 'United Arab Emirates', 'Kuwait', 'Malaysia', 'Mauritius', 'Morocco', 'New Zealand', 'Philippines', 'Singapore', 'Bahamas', 'Thailand', 'Tunisia', 'Bosnia and Herzegovina', 'Botswana', 'Brunei', 'Dominica', 'Ecuador', 'Egypt', 'Georgia', 'Guatemala', 'Haiti', 'Jordan', 'South Korea', 'Lebanon', 'Seychelles', 'Madagascar', 'Maldives', 'Nepal', 'Nicaragua', 'Tajikistan', 'Tanzania', 'Timor-Leste', 'Bangladesh', 'Uganda', 'Yemen', 'Bolivia', 'Cambodia', 'Cape Verde', 'Comoros', 'Djibouti', 'Indonesia', 'Iran', 'Armenia', 'Kenya', 'Kyrgyzstan', 'Laos']",Oman,OMN,21929,1551000,512,21.512583,55.923255,3153000
"['Peru', 'Panama', 'Fiji', 'Argentina', 'Bahamas', 'Honduras', 'Hong Kong', 'Uruguay', 'Barbados', 'Bolivia', 'Brazil', 'Chile', 'Paraguay', 'Russia', 'South Korea', 'Venezuela', 'Bangladesh', 'Egypt', 'Dominica', 'Philippines']",Colombia,COL,12423.92,2288000,170,4.570868,-74.297333,3605000
"['Barbados', 'Dominica', 'Fiji', 'Bahamas', 'Kenya', 'Bangladesh', 'Botswana', 'Malawi', 'Belize', 'Malaysia', 'Philippines']",Tanzania,TZA,912.7,1063000,834,-6.369028,34.888822,148000
"['Peru', 'Mexico', 'Panama', 'Fiji', 'Argentina', 'Bahamas', 'Dominica', 'Honduras', 'Hong Kong', 'Ireland', 'Kenya', 'Morocco', 'Uruguay', 'Austria', 'Belgium', 'Denmark', 'Estonia', 'Finland', 'France', 'Germany', 'Greece', 'Hungary', 'Iceland', 'Italy', 'Latvia', 'Liechtenstein', 'Lithuania', 'Luxembourg', 'Malta', 'Netherlands', 'Norway', 'Poland', 'Portugal', 'Slovakia', 'Slovenia', 'Spain', 'Sweden', 'Switzerland', 'Bolivia', 'Botswana', 'Chile', 'Colombia', 'Guatemala', 'Nicaragua', 'Paraguay', 'Russia', 'Brazil', 'Belize', 'Lebanon', 'Malaysia', 'Egypt', 'Barbados', 'Philippines']",Venezuela,VEN,14414.75,986000,862,6.42375,-66.58973,1931000
"['Sri Lanka', 'Georgia', 'Malaysia', 'Niger', 'Nigeria', 'Philippines', 'Tunisia', 'Turkey', 'Brazil', 'Algeria', 'Dominica', 'Ecuador', 'Gabon', 'Gambia', 'Grenada', 'Guinea', 'Haiti', 'Hong Kong', 'Indonesia', 'South Korea', 'Seychelles', 'Madagascar', 'Maldives', 'Mauritius', 'Nepal', 'Nicaragua', 'Tajikistan', 'Timor-Leste', 'Uganda', 'Bolivia', 'Burkina Faso', 'Cambodia', 'Cape Verde', 'Comoros', 'Djibouti', 'Iran', 'Jordan', 'Kenya', 'Laos', 'Lebanon']",Morocco,MAR,3092.6,10046000,504,31.791702,-7.09262,2293000
"['Bolivia', 'Brazil', 'Brunei', 'Cambodia', 'Colombia', 'Dominica', 'Ecuador', 'Fiji', 'Gambia', 'Haiti', 'Indonesia', 'Israel', 'Laos', 'Malaysia', 'Morocco', 'Peru', 'Singapore', 'Thailand']",Philippines,PHL,2765.08,4681000,608,12.879721,121.774017,3188000
"['Sri Lanka', 'Malaysia', 'Azerbaijan', 'Philippines', 'Russia', 'Barbados', 'Belarus', 'Turkey', 'Ukraine', 'Dominica', 'Ecuador', 'Georgia', 'Antigua and Barbuda', 'Haiti', 'Kazakhstan', 'Moldova', 'Armenia', 'Kyrgyzstan', 'Seychelles', 'Madagascar', 'Maldives', 'Mauritius', 'Nepal', 'Nicaragua', 'Bangladesh', 'Timor-Leste', 'Uganda', 'Bolivia', 'Cambodia', 'Cape Verde', 'Comoros', 'Djibouti', 'Grenada', 'Jamaica', 'Jordan', 'Laos', 'Lebanon']",Tajikistan,TJK,1036.6,208000,762,38.861034,71.276093,15000
"['Antigua and Barbuda', 'Barbados', 'Canada', 'Dominica', 'Hong Kong', 'Peru', 'Mexico', 'Panama', 'Fiji', 'Argentina', 'Bahamas', 'Guyana', 'Honduras', 'Morocco', 'Uruguay', 'Albania', 'Bolivia', 'Bosnia and Herzegovina', 'Botswana', 'Brazil', 'Chile', 'Colombia', 'Costa Rica', 'Guatemala', 'Malawi', 'Moldova', 'Nicaragua', 'Paraguay', 'Serbia', 'South Africa', 'Venezuela', 'Belize', 'Lebanon', 'Malaysia', 'Egypt', 'Indonesia', 'Thailand', 'United Arab Emirates']",Bermuda,,53056.44,236000,60,32.321384,-64.75737,192000
"['Benin', 'Kenya', 'Morocco', 'Bolivia', 'Dominica', 'Philippines', 'Hong Kong']",Niger,NER,415.4,123000,562,17.607789,8.081666,0
"['Kuwait', 'United Arab Emirates', 'Bahamas', 'Honduras', 'Lebanon', 'Malaysia', 'Morocco', 'New Zealand', 'Bolivia', 'Guatemala', 'Nicaragua', 'Hong Kong', 'Turkey', 'Indonesia', 'South Korea', 'Thailand', 'Dominica', 'Philippines', 'Brunei']",Bahrain,,43850.94,9163000,48,25.930414,50.637772,0
"['Sri Lanka', 'Latvia', 'Liechtenstein', 'Lithuania', 'Luxembourg', 'Macedonia', 'Malaysia', 'Malta', 'Austria', 'Mauritius', 'Netherlands', 'Nicaragua', 'Norway', 'Bahamas', 'Panama', 'Paraguay', 'Peru', 'Philippines', 'Poland', 'Portugal', 'Romania', 'Russia', 'Singapore', 'Slovakia', 'Slovenia', 'Spain', 'Sweden', 'Switzerland', 'Tunisia', 'Turkey', 'United Kingdom', 'Uruguay', 'Belgium', 'Belize', 'Bosnia and Herzegovina', 'Brazil', 'Bulgaria', 'Albania', 'Chile', 'Colombia', 'Costa Rica', 'Croatia', 'Cyprus', 'Andorra', 'Czech Republic', 'Denmark', 'Dominica', 'Dominican Republic', 'Ecuador', 'Estonia', 'Finland', 'France', 'Gambia', 'Georgia', 'Germany', 'Greece', 'Guatemala', 'Haiti', 'Hong Kong', 'Argentina', 'Hungary', 'Iceland', 'Ireland', 'Israel', 'Italy', 'Japan', 'South Korea', 'Seychelles', 'Laos', 'Madagascar', 'Maldives', 'Nepal', 'Tanzania', 'Timor-Leste', 'Uganda', 'Bolivia', 'Cambodia', 'Cape Verde', 'Comoros', 'Djibouti', 'Iran', 'Armenia', 'Jordan', 'Kenya']",Honduras,HND,2290.8,295000,340,15.199999,-86.241905,395000
"['Austria', 'Belgium', 'Bulgaria', 'Cyprus', 'Czech Republic', 'Denmark', 'Estonia', 'Finland', 'France', 'Germany', 'Greece', 'Hungary', 'Iceland', 'Ireland', 'Italy', 'Latvia', 'Liechtenstein', 'Lithuania', 'Luxembourg', 'Malta', 'Netherlands', 'Norway', 'Poland', 'Portugal', 'Romania', 'Slovakia', 'Slovenia', 'Spain', 'Sweden', 'Switzerland', 'Bahamas', 'Antigua and Barbuda', 'Barbados', 'Canada', 'Dominica', 'Hong Kong', 'Japan', 'New Zealand', 'Peru', 'Mexico', 'Panama', 'Fiji', 'Argentina', 'Guyana', 'Honduras', 'Kenya', 'Kuwait', 'Malaysia', 'Morocco', 'Turkey', 'Uruguay', 'Albania', 'Bangladesh', 'Bolivia', 'Bosnia and Herzegovina', 'Botswana', 'Brazil', 'Brunei', 'Chile', 'Colombia', 'Costa Rica', 'Guatemala', 'Malawi', 'Moldova', 'Paraguay', 'Serbia', 'South Africa', 'South Korea', 'Ukraine', 'Venezuela', 'Belize', 'Lebanon', 'Egypt', 'Indonesia', 'Thailand', 'Philippines']",United Kingdom,GBR,41787.47,32813000,826,55.378051,-3.435973,56000000
"['United Kingdom', 'Mexico', 'Panama', 'Argentina', 'Bahamas', 'Dominica', 'Honduras', 'Ireland', 'Japan', 'Uruguay', 'Austria', 'Belgium', 'Czech Republic', 'Denmark', 'Estonia', 'Finland', 'France', 'Germany', 'Greece', 'Hungary', 'Iceland', 'Italy', 'Latvia', 'Liechtenstein', 'Lithuania', 'Luxembourg', 'Malta', 'Netherlands', 'Norway', 'Poland', 'Portugal', 'Slovakia', 'Slovenia', 'Spain', 'Sweden', 'Switzerland', 'Bolivia', 'Bosnia and Herzegovina', 'Botswana', 'Brazil', 'Chile', 'Colombia', 'Guatemala', 'Paraguay', 'Serbia', 'South Korea', 'Venezuela', 'Belize', 'Hong Kong', 'Lebanon', 'Barbados', 'Egypt', 'Malaysia', 'South Africa', 'Philippines']",Costa Rica,CRI,13875.86,2428000,188,9.748917,-83.753428,790000
"['India', 'Sri Lanka', 'Turkey', 'Cuba', 'Bulgaria', 'Kenya', 'Kiribati', 'South Korea', 'Austria', 'Latvia', 'Lesotho', 'Liechtenstein', 'Lithuania', 'Luxembourg', 'Macedonia', 'Malawi', 'Malaysia', 'Malta', 'Bahamas', 'Netherlands', 'Norway', 'Philippines', 'Bangladesh', 'Poland', 'Portugal', 'Romania', 'Barbados', 'Seychelles', 'Singapore', 'Slovakia', 'Slovenia', 'South Africa', 'Spain', 'Swaziland', 'Sweden', 'Switzerland', 'Belgium', 'Tunisia', 'Uganda', 'United Kingdom', 'Belize', 'Zimbabwe', 'Bosnia and Herzegovina', 'Botswana', 'Albania', 'Chile', 'China', 'Costa Rica', 'Croatia', 'Cyprus', 'Andorra', 'Czech Republic', 'Denmark', 'Dominica', 'Dominican Republic', 'Ecuador', 'Estonia', 'Fiji', 'Finland', 'France', 'Antigua and Barbuda', 'Gambia', 'Georgia', 'Germany', 'Greece', 'Grenada', 'Haiti', 'Hungary', 'Iceland', 'Israel', 'Italy', 'Jamaica', 'Japan', 'Jordan', 'Laos', 'Madagascar', 'Maldives', 'Nepal', 'Nicaragua', 'Oman', 'Tanzania', 'Thailand', 'Timor-Leste', 'Ukraine', 'Bolivia', 'Cambodia', 'Cape Verde', 'Comoros', 'Djibouti', 'Iran']",Mauritius,,9477.8,993000,480,-20.348404,57.552152,196000
"['Barbados', 'Fiji', 'Algeria', 'Japan', 'Kenya', 'Malaysia', 'Morocco', 'Niger', 'Bolivia', 'Brazil', 'Serbia', 'Belize', 'Indonesia', 'Dominica', 'Philippines']",Tunisia,TUN,4316.69,6269000,788,33.886917,9.537499,2303000
"['Kenya', 'Egypt', 'Indonesia', 'Barbados', 'Dominica', 'Hong Kong']",Timor-Leste,,1105.35,51000,626,-8.874217,125.727539,0
"['Sri Lanka', 'Liechtenstein', 'Lithuania', 'Luxembourg', 'Austria', 'Malta', 'Netherlands', 'Norway', 'Poland', 'Portugal', 'Romania', 'Slovakia', 'Slovenia', 'Spain', 'Sweden', 'Switzerland', 'United Kingdom', 'Belgium', 'Bulgaria', 'Croatia', 'Cyprus', 'Czech Republic', 'Denmark', 'Estonia', 'Finland', 'France', 'Germany', 'Greece', 'Hungary', 'Iceland', 'Ireland', 'Italy', 'Zimbabwe', 'Australia', 'United States', 'Macedonia', 'Malaysia', 'Mauritius', 'Mexico', 'Moldova', 'Morocco', 'Bahamas', 'New Zealand', 'Nicaragua', 'Panama', 'Paraguay', 'Peru', 'Philippines', 'Serbia', 'Singapore', 'Barbados', 'Swaziland', 'Tunisia', 'Turkey', 'Ukraine', 'Uruguay', 'Venezuela', 'Belize', 'Bolivia', 'Bosnia and Herzegovina', 'Botswana', 'Brazil', 'Brunei', 'Albania', 'Canada', 'Chile', 'Colombia', 'Costa Rica', 'Andorra', 'Dominica', 'Dominican Republic', 'Ecuador', 'Fiji', 'Gambia', 'Georgia', 'Antigua and Barbuda', 'Grenada', 'Guatemala', 'Haiti', 'Honduras', 'Argentina', 'Israel', 'Japan', 'Armenia', 'Kiribati', 'South Korea', 'Kyrgyzstan', 'Seychelles', 'Lebanon', 'Madagascar', 'Maldives', 'Nepal', 'Oman', 'Bahrain', 'Papua New Guinea', 'Bangladesh', 'Tajikistan', 'Tanzania', 'Thailand', 'Timor-Leste', 'Uganda', 'United Arab Emirates', 'Burkina Faso', 'Cambodia', 'Cape Verde', 'Comoros', 'Djibouti', 'Egypt', 'Indonesia', 'Iran', 'Jamaica', 'Jordan', 'Kenya', 'Kuwait', 'Laos']",Latvia,LVA,15381.1,1536000,428,56.879635,24.603189,3268000
"['United Kingdom', 'Peru', 'Mexico', 'Panama', 'Fiji', 'Bahamas', 'Dominica', 'Guyana', 'Honduras', 'Hong Kong', 'Ireland', 'Japan', 'Kenya', 'Morocco', 'New Zealand', 'Uruguay', 'Austria', 'Belgium', 'Czech Republic', 'Denmark', 'Estonia', 'Finland', 'France', 'Germany', 'Greece', 'Hungary', 'Iceland', 'Italy', 'Latvia', 'Liechtenstein', 'Lithuania', 'Luxembourg', 'Malta', 'Netherlands', 'Norway', 'Poland', 'Portugal', 'Slovakia', 'Slovenia', 'Spain', 'Sweden', 'Switzerland', 'Albania', 'Barbados', 'Bolivia', 'Bosnia and Herzegovina', 'Botswana', 'Brazil', 'Chile', 'Colombia', 'Costa Rica', 'Guatemala', 'Paraguay', 'Russia', 'Serbia', 'South Africa', 'Thailand', 'Ukraine', 'Venezuela', 'Antigua and Barbuda', 'Lebanon', 'Egypt', 'Indonesia', 'South Korea']",Argentina,ARG,14715.18,5571000,32,-38.416097,-63.616672,7544000
"['Latvia', 'Liechtenstein', 'Lithuania', 'Luxembourg', 'Malta', 'Netherlands', 'Norway', 'Poland', 'Portugal', 'Romania', 'Austria', 'Slovakia', 'Slovenia', 'Spain', 'Sweden', 'Switzerland', 'United Kingdom', 'Belgium', 'Bulgaria', 'Croatia', 'Cyprus', 'Czech Republic', 'Denmark', 'Estonia', 'Finland', 'France', 'Greece', 'Hungary', 'Iceland', 'Ireland', 'Italy', 'Australia', 'United States', 'Kiribati', 'South Korea', 'Kyrgyzstan', 'Lesotho', 'Macedonia', 'Malawi', 'Malaysia', 'Antigua and Barbuda', 'Mauritius', 'Mexico', 'Moldova', 'Argentina', 'Morocco', 'Armenia', 'New Zealand', 'Nicaragua', 'Panama', 'Paraguay', 'Peru', 'Philippines', 'Serbia', 'Singapore', 'Bahamas', 'South Africa', 'Swaziland', 'Thailand', 'Tunisia', 'Turkey', 'Ukraine', 'Barbados', 'Uruguay', 'Venezuela', 'Belize', 'Bolivia', 'Bosnia and Herzegovina', 'Botswana', 'Brazil', 'Brunei', 'Canada', 'Chile', 'Colombia', 'Costa Rica', 'Dominica', 'Ecuador', 'Fiji', 'Gambia', 'Georgia', 'Grenada', 'Guatemala', 'Albania', 'Guyana', 'Haiti', 'Honduras', 'Israel', 'Jamaica', 'Japan', 'Kazakhstan', 'Andorra', 'Papua New Guinea', 'United Arab Emirates', 'Seychelles']",Germany,DEU,46251.4,31545000,276,51.165691,10.451526,82300000
"['Kenya', 'Dominica', 'Philippines', 'Sri Lanka', 'Cuba', 'Mauritius', 'Panama', 'Philippines', 'Singapore', 'Uganda', 'Botswana', 'Dominica', 'Ecuador', 'Haiti', 'Seychelles', 'Madagascar', 'Maldives', 'Nepal', 'Nicaragua', 'Tanzania', 'Timor-Leste', 'Cape Verde', 'Comoros', 'Djibouti', 'Kenya', 'Laos']",Angola,AGO,5783.4,650000,24,-11.202692,17.873887,0
"['Sri Lanka', 'Estonia', 'Finland', 'France', 'Germany', 'Greece', 'Iceland', 'Ireland', 'Italy', 'Latvia', 'Liechtenstein', 'Lithuania', 'Luxembourg', 'Malta', 'Netherlands', 'Norway', 'Poland', 'Portugal', 'Romania', 'Slovakia', 'Slovenia', 'Spain', 'Sweden', 'Switzerland', 'United Kingdom', 'Austria', 'Belgium', 'Bulgaria', 'Croatia', 'Cyprus', 'Czech Republic', 'Denmark', 'Australia', 'United States', 'Fiji', 'Gambia', 'Georgia', 'Grenada', 'Guatemala', 'Haiti', 'Honduras', 'Israel', 'Jamaica', 'Japan', 'Kiribati', 'South Korea', 'Kyrgyzstan', 'Macedonia', 'Malaysia', 'Mauritius', 'Mexico', 'Moldova', 'Morocco', 'New Zealand', 'Nicaragua', 'Panama', 'Paraguay', 'Peru', 'Philippines', 'Serbia', 'Singapore', 'South Africa', 'Swaziland', 'Thailand', 'Tunisia', 'Turkey', 'Ukraine', 'Uruguay', 'Venezuela', 'Albania', 'Andorra', 'Antigua and Barbuda', 'Argentina', 'Armenia', 'Bahamas', 'Barbados', 'Belize', 'Bolivia', 'Bosnia and Herzegovina', 'Botswana', 'Brazil', 'Brunei', 'Canada', 'Chile', 'Colombia', 'Costa Rica', 'Dominica', 'Dominican Republic', 'Ecuador', 'Maldives', 'Papua New Guinea', 'United Arab Emirates', 'Seychelles', 'Indonesia', 'Iran', 'Jordan', 'Kenya', 'Kuwait', 'Laos', 'Lebanon', 'Madagascar', 'Nepal', 'Oman', 'Qatar', 'Tajikistan', 'Tanzania', 'Timor-Leste', 'Uganda', 'Zimbabwe', 'Bahrain', 'Bangladesh', 'Burkina Faso', 'Cambodia', 'Cape Verde', 'Comoros', 'Djibouti', 'Egypt']",Hungary,HUN,13485.5,10675000,348,47.162494,19.503304,16640000
"['Sri Lanka', 'Latvia', 'Liechtenstein', 'Lithuania', 'Luxembourg', 'Austria', 'Netherlands', 'Norway', 'Poland', 'Portugal', 'Romania', 'Slovakia', 'Slovenia', 'Spain', 'Sweden', 'Switzerland', 'Belgium', 'United Kingdom', 'Bulgaria', 'Croatia', 'Cyprus', 'Czech Republic', 'Denmark', 'Estonia', 'Finland', 'France', 'Germany', 'Greece', 'Hungary', 'Iceland', 'Ireland', 'Italy', 'Turkey', 'Australia', 'United States', 'Lesotho', 'Macedonia', 'Malawi', 'Malaysia', 'Mauritius', 'Mexico', 'Moldova', 'Morocco', 'Bahamas', 'New Zealand', 'Nicaragua', 'Panama', 'Paraguay', 'Peru', 'Philippines', 'Barbados', 'Serbia', 'Singapore', 'South Africa', 'Swaziland', 'Tunisia', 'Belize', 'Uganda', 'Ukraine', 'Uruguay', 'Venezuela', 'Zimbabwe', 'Bosnia and Herzegovina', 'Botswana', 'Brazil', 'Brunei', 'Albania', 'Canada', 'Chile', 'Colombia', 'Costa Rica', 'Andorra', 'Dominica', 'Dominican Republic', 'Ecuador', 'Fiji', 'Gambia', 'Georgia', 'Antigua and Barbuda', 'Grenada', 'Guatemala', 'Haiti', 'Honduras', 'Argentina', 'Israel', 'Jamaica', 'Armenia', 'Japan', 'Kiribati', 'South Korea', 'Kyrgyzstan', 'Papua New Guinea', 'United Arab Emirates', 'Seychelles', 'Laos', 'Lebanon', 'Madagascar', 'Maldives', 'Nepal', 'Oman', 'Bahrain', 'Qatar', 'Bangladesh', 'Tajikistan', 'Tanzania', 'Thailand', 'Timor-Leste', 'Bolivia', 'Burkina Faso', 'Cambodia', 'Cape Verde', 'Comoros', 'Djibouti', 'Egypt', 'Indonesia', 'Iran', 'Jordan', 'Kenya', 'Kuwait']",Malta,,22775,1582000,470,35.937496,14.375416,264000
"['Russia', 'Peru', 'Fiji', 'Honduras', 'Kenya', 'Turkey', 'Albania', 'Argentina', 'Azerbaijan', 'Brazil', 'Guatemala', 'Moldova', 'Nicaragua', 'Paraguay', 'Lebanon', 'Malaysia', 'Brunei', 'Egypt', 'Serbia', 'Barbados', 'Dominica', 'Thailand']",Ukraine,UKR,3900.47,24671000,804,48.379433,31.16558,23761000
"['Bahamas', 'Barbados', 'Canada', 'Dominica', 'Guyana', 'United Kingdom', 'Peru', 'Panama', 'Fiji', 'Honduras', 'Hong Kong', 'Ireland', 'Kenya', 'Turkey', 'Austria', 'Belgium', 'Czech Republic', 'Denmark', 'Estonia', 'Finland', 'France', 'Germany', 'Greece', 'Hungary', 'Iceland', 'Italy', 'Latvia', 'Liechtenstein', 'Lithuania', 'Luxembourg', 'Malta', 'Netherlands', 'Norway', 'Poland', 'Portugal', 'Slovakia', 'Slovenia', 'Spain', 'Sweden', 'Switzerland', 'Bolivia', 'Botswana', 'Chile', 'Colombia', 'Costa Rica', 'Guatemala', 'Malawi', 'Nicaragua', 'South Korea', 'Venezuela', 'Belize', 'Lebanon', 'Malaysia', 'Egypt', 'South Africa', 'Philippines']",Antigua and Barbuda,,21027.83,244000,28,17.060816,-61.796428,0
"['Austria', 'Belgium', 'Bulgaria', 'Cyprus', 'Denmark', 'Estonia', 'Finland', 'France', 'Germany', 'Greece', 'Hungary', 'Iceland', 'Ireland', 'Italy', 'Latvia', 'Liechtenstein', 'Lithuania', 'Luxembourg', 'Malta', 'Netherlands', 'Norway', 'Poland', 'Portugal', 'Romania', 'Slovakia', 'Slovenia', 'Spain', 'Switzerland', 'Canada', 'Peru', 'Mexico', 'Panama', 'Fiji', 'Argentina', 'Bahamas', 'Barbados', 'Honduras', 'Japan', 'Kenya', 'Kuwait', 'Malaysia', 'Morocco', 'Uruguay', 'Albania', 'Bangladesh', 'Bolivia', 'Botswana', 'Brazil', 'Brunei', 'Chile', 'Colombia', 'Costa Rica', 'Guatemala', 'Moldova', 'Nicaragua', 'Paraguay', 'Serbia', 'Ukraine', 'Venezuela', 'Belize', 'Lebanon', 'Egypt', 'Indonesia', 'Thailand', 'Philippines', 'Bahrain']",Sweden,SWE,60380.95,5229000,752,60.128161,18.643501,15917000
"['Malaysia', 'Moldova', 'Panama', 'Azerbaijan', 'Bahamas', 'Tajikistan', 'Barbados', 'Turkey', 'Belarus', 'Ukraine', 'Uzbekistan', 'Brazil', 'Colombia', 'Dominica', 'Ecuador', 'Grenada', 'Haiti', 'Antigua and Barbuda', 'Israel', 'Kazakhstan', 'Kyrgyzstan', 'Armenia', 'Seychelles', 'Madagascar', 'Maldives', 'Mauritius', 'Nepal', 'Nicaragua', 'Bangladesh', 'Tanzania', 'Timor-Leste', 'Uganda', 'Bolivia', 'Cambodia', 'Cape Verde', 'Comoros', 'Djibouti', 'Egypt', 'Iran', 'Jamaica', 'Jordan', 'Kenya', 'Kuwait', 'Laos', 'Lebanon']",Georgia,GEO,3596.9,5392000,268,42.315407,43.356892,3220000
"['Antigua and Barbuda', 'Barbados', 'Canada', 'Dominica', 'Hong Kong', 'Peru', 'Mexico', 'Panama', 'Fiji', 'Argentina', 'Bahamas', 'Bahrain', 'Guyana', 'Honduras', 'Kenya', 'Kuwait', 'Morocco', 'Uruguay', 'Albania', 'Bolivia', 'Bosnia and Herzegovina', 'Botswana', 'Brazil', 'Chile', 'Colombia', 'Costa Rica', 'Guatemala', 'Malawi', 'Moldova', 'Nicaragua', 'Paraguay', 'Serbia', 'South Africa', 'Venezuela', 'Belize', 'Lebanon', 'Egypt', 'Indonesia', 'Thailand', 'United Arab Emirates']",Cayman Islands,,30190.67,345000,136,19.513469,-80.566956,0
"['Australia', 'Sri Lanka', 'Latvia', 'Lesotho', 'Liechtenstein', 'Lithuania', 'Argentina', 'Luxembourg', 'Macedonia', 'Malawi', 'Malaysia', 'Malta', 'Mauritius', 'Mexico', 'Moldova', 'Morocco', 'Netherlands', 'New Zealand', 'Nicaragua', 'Niger', 'Norway', 'Peru', 'Philippines', 'Poland', 'Austria', 'Portugal', 'Romania', 'Russia', 'Serbia', 'Singapore', 'Slovakia', 'Slovenia', 'Bahamas', 'South Africa', 'Spain', 'Sweden', 'Switzerland', 'Tanzania', 'Thailand', 'Tunisia', 'Turkey', 'Uganda', 'Ukraine', 'United Kingdom', 'Uruguay', 'Venezuela', 'Zimbabwe', 'Belgium', 'Belize', 'Bosnia and Herzegovina', 'Botswana', 'Brazil', 'Brunei', 'Bulgaria', 'Canada', 'Cape Verde', 'Chile', 'Colombia', 'Croatia', 'Cyprus', 'Czech Republic', 'Denmark', 'Dominica', 'Dominican Republic', 'Ecuador', 'Egypt', 'Albania', 'Estonia', 'Fiji', 'Finland', 'Germany', 'Greece', 'Grenada', 'Haiti', 'Andorra', 'Hungary', 'Iceland', 'Indonesia', 'Ireland', 'Israel', 'Italy', 'Jamaica', 'Japan', 'Kazakhstan', 'Kiribati', 'South Korea', 'Seychelles', 'Laos', 'Lebanon', 'Madagascar', 'Maldives', 'Armenia', 'Nepal', 'Oman', 'Papua New Guinea', 'Qatar', 'Bahrain', 'Tajikistan', 'Timor-Leste', 'United Arab Emirates', 'Burkina Faso', 'Cambodia', 'Comoros', 'Djibouti', 'Ethiopia', 'Iran', 'Jordan', 'Kenya', 'Kuwait']",Hong Kong,,38123.5,25661000,344,22.396428,114.109497,81958000
"['Niger', 'Bolivia', 'Malaysia', 'Egypt', 'South Africa', 'Dominica', 'Philippines', 'Hong Kong']",Benin,BEN,1790.75,231000,204,9.30769,2.315834,0
"['India', 'Sri Lanka', 'Australia', 'United States', 'Kiribati', 'South Korea', 'Kyrgyzstan', 'Latvia', 'Lesotho', 'Liechtenstein', 'Lithuania', 'Luxembourg', 'Macedonia', 'Malawi', 'Austria', 'Malaysia', 'Malta', 'Mauritius', 'Mexico', 'Moldova', 'Morocco', 'Bahamas', 'Netherlands', 'Nicaragua', 'Norway', 'Panama', 'Peru', 'Philippines', 'Poland', 'Portugal', 'Romania', 'Serbia', 'Singapore', 'Slovakia', 'Slovenia', 'South Africa', 'Barbados', 'Spain', 'Swaziland', 'Sweden', 'Switzerland', 'Thailand', 'Tunisia', 'Turkey', 'United Kingdom', 'Uruguay', 'Belgium', 'Venezuela', 'Belize', 'Bolivia', 'Bosnia and Herzegovina', 'Botswana', 'Brazil', 'Brunei', 'Albania', 'Bulgaria', 'Canada', 'Chile', 'Colombia', 'Costa Rica', 'Andorra', 'Croatia', 'Cyprus', 'Czech Republic', 'Denmark', 'Dominica', 'Dominican Republic', 'Ecuador', 'Estonia', 'Fiji', 'Finland', 'France', 'Antigua and Barbuda', 'Gambia', 'Georgia', 'Germany', 'Greece', 'Grenada', 'Guatemala', 'Argentina', 'Guyana', 'Haiti', 'Honduras', 'Hungary', 'Iceland', 'Ireland', 'Israel', 'Italy', 'Jamaica', 'Japan', 'Seychelles', 'Kenya', 'Kuwait', 'Laos', 'Lebanon', 'Madagascar', 'Maldives', 'Nepal', 'Oman', 'Bahrain', 'Papua New Guinea', 'Paraguay', 'Qatar', 'Bangladesh', 'Tajikistan', 'Tanzania', 'Timor-Leste', 'Uganda', 'United Arab Emirates', 'Zimbabwe', 'Burkina Faso', 'Cambodia', 'Cape Verde', 'Comoros', 'Djibouti', 'Egypt', 'Ethiopia', 'Indonesia', 'Iran', 'Armenia', 'Jordan']",New Zealand,NZL,41824.3,2629000,554,-40.900557,174.885971,1918000
"['India', 'Sri Lanka', 'Cuba', 'Malawi', 'Malaysia', 'Mauritius', 'Bahamas', 'Panama', 'Philippines', 'Singapore', 'Barbados', 'Swaziland', 'Tanzania', 'Uganda', 'Zimbabwe', 'Botswana', 'Burundi', 'Dominica', 'Eritrea', 'Ethiopia', 'Fiji', 'Gambia', 'Ghana', 'Grenada', 'Antigua and Barbuda', 'Haiti', 'Hong Kong', 'Jamaica', 'Kiribati', 'Lesotho', 'Seychelles', 'Madagascar', 'Maldives', 'Nepal', 'Nigeria', 'Timor-Leste', 'Bolivia', 'Burkina Faso', 'Cape Verde', 'Comoros', 'Djibouti', 'Iran', 'Laos']",Kenya,KEN,1245.5,1434000,404,-0.023559,37.906193,0
"['Belgium', 'Bulgaria', 'Cyprus', 'Czech Republic', 'Denmark', 'Estonia', 'Finland', 'France', 'Germany', 'Greece', 'Hungary', 'Iceland', 'Ireland', 'Italy', 'Latvia', 'Liechtenstein', 'Lithuania', 'Luxembourg', 'Malta', 'Netherlands', 'Norway', 'Poland', 'Portugal', 'Romania', 'Slovakia', 'Slovenia', 'Spain', 'Sweden', 'Switzerland', 'United Kingdom', 'Canada', 'Japan', 'Peru', 'Mexico', 'Panama', 'Fiji', 'Antigua and Barbuda', 'Argentina', 'Bahamas', 'Barbados', 'Guyana', 'Honduras', 'Hong Kong', 'Kenya', 'Kuwait', 'Malaysia', 'Morocco', 'New Zealand', 'Turkey', 'Uruguay', 'Albania', 'Bangladesh', 'Bolivia', 'Bosnia and Herzegovina', 'Botswana', 'Brazil', 'Brunei', 'Chile', 'Colombia', 'Costa Rica', 'Guatemala', 'Moldova', 'Nicaragua', 'Paraguay', 'Serbia', 'South Africa', 'South Korea', 'Ukraine', 'Venezuela', 'Belize', 'Lebanon', 'Egypt', 'Indonesia', 'Thailand', 'United Arab Emirates', 'Dominica', 'Philippines', 'Bahrain']",Austria,AUT,45079.09,24813000,40,47.516231,14.550072,10671000
"['Sri Lanka', 'Turkey', 'Oman', 'Qatar', 'Saudi Arabia', 'Bahrain', 'United Arab Emirates', 'Dominican Republic', 'Malaysia', 'Mauritius', 'Morocco', 'New Zealand', 'Nicaragua', 'Panama', 'Philippines', 'Bahamas', 'Singapore', 'Thailand', 'Tunisia', 'Bosnia and Herzegovina', 'Botswana', 'Albania', 'Dominica', 'Ecuador', 'Egypt', 'Georgia', 'Guatemala', 'Haiti', 'Honduras', 'Jordan', 'South Korea', 'Kyrgyzstan', 'Lebanon', 'Seychelles', 'Madagascar', 'Maldives', 'Nepal', 'Bangladesh', 'Tajikistan', 'Tanzania', 'Timor-Leste', 'Uganda', 'Yemen', 'Zimbabwe', 'Bolivia', 'Brunei', 'Cambodia', 'Cape Verde', 'Comoros', 'Djibouti', 'Ethiopia', 'Indonesia', 'Iran', 'Kenya', 'Armenia', 'Laos']",Kuwait,KWT,52197.3,300000,414,29.31166,47.481766,2849000
"['Benin', 'Kenya', 'Niger', 'Bolivia', 'Hong Kong', 'Malaysia', 'South Africa', 'Dominica', 'Philippines']",Cape Verde,,6416.32,503000,132,16.002082,-24.013197,0
"['India', 'Sri Lanka', 'Latvia', 'Liechtenstein', 'Lithuania', 'Austria', 'Malta', 'Netherlands', 'Norway', 'Poland', 'Portugal', 'Romania', 'Slovakia', 'Slovenia', 'Spain', 'Sweden', 'Switzerland', 'Belgium', 'United Kingdom', 'Bulgaria', 'Croatia', 'Cyprus', 'Czech Republic', 'Estonia', 'Finland', 'France', 'Germany', 'Greece', 'Hungary', 'Iceland', 'Ireland', 'Italy', 'Australia', 'United States', 'Laos', 'Lesotho', 'Macedonia', 'Malawi', 'Malaysia', 'Mauritius', 'Mexico', 'Moldova', 'Morocco', 'Bahamas', 'New Zealand', 'Nicaragua', 'Panama', 'Paraguay', 'Peru', 'Philippines', 'Barbados', 'Serbia', 'Singapore', 'South Africa', 'Swaziland', 'Thailand', 'Tunisia', 'Turkey', 'Ukraine', 'Uruguay', 'Belize', 'Venezuela', 'Bolivia', 'Bosnia and Herzegovina', 'Botswana', 'Brazil', 'Brunei', 'Albania', 'Canada', 'Chile', 'Colombia', 'Costa Rica', 'Andorra', 'Dominica', 'Ecuador', 'Fiji', 'Gambia', 'Georgia', 'Antigua and Barbuda', 'Grenada', 'Guatemala', 'Guyana', 'Haiti', 'Honduras', 'Argentina', 'Israel', 'Jamaica', 'Armenia', 'Japan', 'Kiribati', 'South Korea', 'Kyrgyzstan', 'United Arab Emirates', 'Seychelles', 'Dominican Republic', 'Lebanon', 'Madagascar', 'Maldives', 'Nepal', 'Oman', 'Bahrain', 'Papua New Guinea', 'Qatar', 'Bangladesh', 'Tajikistan', 'Tanzania', 'Timor-Leste', 'Uganda', 'Zimbabwe', 'Burkina Faso', 'Cambodia', 'Cape Verde', 'Comoros', 'Djibouti', 'Egypt', 'Ethiopia', 'Indonesia', 'Iran', 'Jordan', 'Kenya', 'Kuwait']",Luxembourg,LUX,110664.8,945000,442,49.815273,6.129583,0
"['Fiji', 'Benin', 'Kenya', 'Lebanon', 'Indonesia', 'Dominica', 'Thailand', 'Bahrain']",China,CHN,11906.51,55686000,156,35.86166,104.195397,98185000
"['Sri Lanka', 'Zimbabwe', 'Australia', 'Haiti', 'Hungary', 'Iceland', 'Israel', 'Italy', 'Japan', 'Kazakhstan', 'South Korea', 'Latvia', 'Liechtenstein', 'Lithuania', 'Luxembourg', 'Macedonia', 'Malta', 'Netherlands', 'Norway', 'Panama', 'Peru', 'Poland', 'Portugal', 'Romania', 'Russia', 'Singapore', 'Slovakia', 'Slovenia', 'Spain', 'Swaziland', 'Sweden', 'Switzerland', 'Tunisia', 'Turkey', 'Ukraine', 'Albania', 'Uruguay', 'Andorra', 'Argentina', 'Austria', 'Belarus', 'Belgium', 'Bosnia and Herzegovina', 'Brazil', 'Bulgaria', 'Chile', 'Costa Rica', 'Croatia', 'Cuba', 'Cyprus', 'Czech Republic', 'Denmark', 'Dominica', 'Dominican Republic', 'Ecuador', 'Estonia', 'Fiji', 'Finland', 'France', 'Gambia', 'Georgia', 'Germany', 'Greece', 'Iran', 'Jamaica', 'Jordan', 'Kenya', 'Kyrgyzstan', 'Laos', 'Lebanon', 'Madagascar', 'Maldives', 'Mauritius', 'Nepal', 'Nicaragua', 'Tanzania', 'Timor-Leste', 'Uganda', 'Armenia', 'Bangladesh', 'Bolivia', 'Cambodia', 'Cape Verde', 'Comoros', 'Djibouti', 'Egypt', 'Grenada']",Serbia,SRB,6353.8,922000,688,44.016521,21.005859,0
"['United Kingdom', 'Panama', 'Argentina', 'Bahamas', 'Honduras', 'Ireland', 'Kenya', 'Uruguay', 'Austria', 'Belgium', 'Czech Republic', 'Denmark', 'Estonia', 'Finland', 'France', 'Germany', 'Greece', 'Hungary', 'Iceland', 'Italy', 'Latvia', 'Liechtenstein', 'Lithuania', 'Luxembourg', 'Malta', 'Netherlands', 'Norway', 'Poland', 'Portugal', 'Slovakia', 'Slovenia', 'Spain', 'Sweden', 'Switzerland', 'Bolivia', 'Bosnia and Herzegovina', 'Chile', 'Guatemala', 'Paraguay', 'Russia', 'South Korea', 'Belize', 'Malaysia', 'Egypt', 'Barbados', 'Dominica', 'Philippines']",Nicaragua,NIC,1851.1,1229000,558,12.865416,-85.207229,994000
"['India', 'Sri Lanka', 'Turkey', 'Zimbabwe', 'Latvia', 'Liechtenstein', 'Lithuania', 'Luxembourg', 'Macedonia', 'Malaysia', 'Malta', 'Mauritius', 'Morocco', 'Austria', 'Netherlands', 'New Zealand', 'Nicaragua', 'Norway', 'Panama', 'Paraguay', 'Peru', 'Philippines', 'Bahamas', 'Poland', 'Portugal', 'Romania', 'Serbia', 'Singapore', 'Slovakia', 'Slovenia', 'Spain', 'Sweden', 'Switzerland', 'United Kingdom', 'Barbados', 'Uruguay', 'Venezuela', 'Belgium', 'Belize', 'Bolivia', 'Bosnia and Herzegovina', 'Botswana', 'Brazil', 'Albania', 'Bulgaria', 'Chile', 'Colombia', 'Costa Rica', 'Andorra', 'Croatia', 'Cyprus', 'Czech Republic', 'Denmark', 'Dominica', 'Dominican Republic', 'Ecuador', 'Estonia', 'Fiji', 'Finland', 'France', 'Antigua and Barbuda', 'Georgia', 'Germany', 'Greece', 'Grenada', 'Guatemala', 'Haiti', 'Argentina', 'Honduras', 'Hungary', 'Iceland', 'Ireland', 'Israel', 'Armenia', 'Italy', 'Jamaica', 'Japan', 'South Korea', 'Seychelles', 'Kyrgyzstan', 'Laos', 'Lebanon', 'Madagascar', 'Maldives', 'Nepal', 'Papua New Guinea', 'Bahrain', 'Tajikistan', 'Tanzania', 'Timor-Leste', 'Uganda', 'Cambodia', 'Cape Verde', 'Comoros', 'Djibouti', 'Egypt', 'Ethiopia', 'Indonesia', 'Iran', 'Jordan', 'Kenya']",Mexico,MEX,10307.3,24151000,484,23.634501,-102.552784,14104000
"['Sri Lanka', 'Bahrain', 'Turkey', 'Malawi', 'Malaysia', 'Mauritius', 'Mexico', 'Niger', 'Bahamas', 'Panama', 'Peru', 'Philippines', 'Singapore', 'Bangladesh', 'South Africa', 'Swaziland', 'Barbados', 'Tanzania', 'Uruguay', 'Venezuela', 'Zimbabwe', 'Belize', 'Botswana', 'Chile', 'Colombia', 'Dominica', 'Dominican Republic', 'Ecuador', 'Fiji', 'Gambia', 'Grenada', 'Antigua and Barbuda', 'Guyana', 'Haiti', 'Argentina', 'Israel', 'Kenya', 'Kiribati', 'South Korea', 'Lesotho', 'Liberia', 'Uganda', 'Seychelles', 'Madagascar', 'Maldives', 'Nepal', 'Nicaragua', 'Timor-Leste', 'Bolivia', 'Cambodia', 'Cape Verde', 'Comoros', 'Djibouti', 'Jordan', 'Laos']",Jamaica,JAM,5290.5,2008000,388,18.109581,-77.297508,0
"['Barbados', 'Dominica', 'Bahamas', 'Kenya', 'Bolivia', 'Malawi']",Sri Lanka,LKA,3279.89,1275000,144,7.873054,80.771797,1262000
"['Albania', 'Andorra', 'Argentina', 'Armenia', 'Austria', 'Bahamas', 'Barbados', 'Belgium', 'Belize', 'Bolivia', 'Brazil', 'Brunei', 'Bulgaria', 'Canada', 'Chile', 'Colombia', 'Croatia', 'Cyprus', 'Denmark', 'Dominica', 'Ecuador', 'Estonia', 'Fiji', 'Finland', 'France', 'Gambia', 'Georgia', 'Germany', 'Greece', 'Grenada', 'Guatemala', 'Haiti', 'Honduras', 'Hungary', 'Iceland', 'Ireland', 'Israel', 'Ireland', 'Italy', 'Jamaica', 'Japan', 'Kiribati', 'Kyrgyzstan', 'Latvia', 'Liechtenstein', 'Lithuania', 'Luxembourg', 'Macedonia', 'Malaysia', 'Maldives', 'Malta', 'Mauritius', 'Mexico', 'Moldova', 'Morocco', 'Netherlands', 'Nicaragua', 'Norway', 'Panama', 'Paraguay', 'Peru', 'Philippines', 'Portugal', 'Romania', 'Serbia', 'Seychelles', 'Singapore', 'Slovakia', 'Slovenia', 'Spain', 'Swaziland', 'Sweden', 'Switzerland', 'Thailand', 'Tunisia', 'Ukraine', 'Uruguay', 'Venezuela']",Poland,POL,13653.72,15800000,616,51.919438,19.145136,10050000
"['Antigua and Barbuda', 'Barbados', 'Canada', 'Dominica', 'United Kingdom', 'Peru', 'Mexico', 'Panama', 'Fiji', 'Guyana', 'Honduras', 'Hong Kong', 'Ireland', 'Japan', 'Kenya', 'Turkey', 'Uruguay', 'Austria', 'Belgium', 'Czech Republic', 'Denmark', 'Estonia', 'Finland', 'France', 'Germany', 'Greece', 'Hungary', 'Iceland', 'Italy', 'Latvia', 'Liechtenstein', 'Lithuania', 'Luxembourg', 'Malta', 'Netherlands', 'Norway', 'Poland', 'Portugal', 'Slovakia', 'Slovenia', 'Spain', 'Sweden', 'Switzerland', 'Bolivia', 'Botswana', 'Brazil', 'Chile', 'Colombia', 'Costa Rica', 'Guatemala', 'Malawi', 'Nicaragua', 'South Korea', 'Belize', 'Lebanon', 'Malaysia', 'Egypt', 'South Africa', 'Philippines']",Bahamas,BHS,23264.27,1364000,44,25.03428,-77.39628,0
[],CÃ´te d'Ivoire,,0,0,0,0,0,0
"['Armenia', 'Azerbaijan', 'Bangladesh', 'Belarus', 'Benin', 'Bermuda', 'Cambodia', 'Comoros', 'Djibouti', 'Dominica', 'Timor-Leste', 'Ecuador', 'Egypt', 'Georgia', 'Guatemala', 'Haiti', 'Honduras', 'Iraq', 'Jordan', 'Kenya', 'Laos', 'Macau', 'Malawi', 'Malaysia', 'Maldives', 'Mauritius', 'Nepal', 'Nicaragua', 'Philippines', 'Seychelles', 'Singapore', 'Swaziland', 'Tanzania', 'Uganda']",Madagascar,MDG,463,196000,450,-18.766947,46.869107,0
"['Kenya', 'Bolivia', 'Malaysia', 'Dominica', 'Philippines', 'Hong Kong']",Comoros,,1446.17,11000,174,-11.875001,43.872219,0
"['Kenya', 'Bolivia', 'Costa Rica', 'Dominica', 'Philippines', 'Hong Kong']",Djibouti,DJI,2998.74,63000,262,11.825138,42.590275,0
"['Sri Lanka', 'Macedonia', 'Malaysia', 'Moldova', 'Azerbaijan', 'Philippines', 'Russia', 'Serbia', 'Barbados', 'Tajikistan', 'Turkey', 'Belarus', 'Ukraine', 'Uzbekistan', 'Albania', 'Colombia', 'Dominica', 'Dominican Republic', 'Ecuador', 'Georgia', 'Antigua and Barbuda', 'Haiti', 'Hong Kong', 'Argentina', 'South Korea', 'Kyrgyzstan', 'Armenia', 'Seychelles', 'Lebanon', 'Madagascar', 'Maldives', 'Mauritius', 'Nepal', 'Nicaragua', 'Bahrain', 'Bangladesh', 'Thailand', 'Timor-Leste', 'Uganda', 'Bolivia', 'Cambodia', 'Cape Verde', 'Comoros', 'Djibouti', 'Egypt', 'Grenada', 'Jamaica', 'Jordan', 'Kenya', 'Laos']",Kazakhstan,KAZ,13611.5,4926000,398,48.019573,66.923684,5423000
"['Latvia', 'Liechtenstein', 'Lithuania', 'Luxembourg', 'Macedonia', 'Malaysia', 'Malta', 'Austria', 'Mauritius', 'Netherlands', 'Nicaragua', 'Norway', 'Bahamas', 'Panama', 'Paraguay', 'Philippines', 'Poland', 'Portugal', 'Romania', 'Russia', 'Singapore', 'Slovakia', 'Slovenia', 'Spain', 'Sweden', 'Switzerland', 'Turkey', 'United Kingdom', 'Uruguay', 'Belgium', 'Venezuela', 'Belize', 'Bosnia and Herzegovina', 'Brazil', 'Bulgaria', 'Albania', 'Chile', 'Colombia', 'Costa Rica', 'Croatia', 'Cyprus', 'Andorra', 'Czech Republic', 'Denmark', 'Dominica', 'Dominican Republic', 'Ecuador', 'Estonia', 'Finland', 'France', 'Germany', 'Greece', 'Haiti', 'Honduras', 'Hong Kong', 'Argentina', 'Hungary', 'Iceland', 'Ireland', 'Israel', 'Italy', 'Japan', 'South Korea', 'Seychelles', 'Laos', 'Madagascar', 'Maldives', 'Nepal', 'Tanzania', 'Timor-Leste', 'Uganda', 'Bolivia', 'Cambodia', 'Cape Verde', 'Comoros', 'Djibouti', 'Iran', 'Armenia', 'Jordan', 'Kenya']",Guatemala,GTM,3477.9,1331000,320,15.783471,-90.230759,1326000
"['Guyana', 'Malaysia', 'Dominica']",North Korea,PRK,1800,0,408,40.339852,127.510093,0
"['India', 'Sri Lanka', 'Bahrain', 'Georgia', 'Malaysia', 'South Africa', 'Turkey', 'Dominica', 'Ecuador', 'Egypt', 'Haiti', 'Lebanon', 'Libya']",Jordan,JOR,5213.4,3945000,400,30.585164,36.238414,2054000
"['Albania', 'Andorra', 'Argentina', 'Armenia', 'Austria', 'Bahamas', 'Barbados', 'Belgium', 'Belize', 'Bolivia', 'Botswana', 'Brazil', 'Brunei', 'Bulgaria', 'Canada', 'Chile', 'Colombia', 'Comoros', 'Croatia', 'Cyprus', 'Denmark', 'Dominica', 'Ecuador', 'Estonia', 'Fiji', 'Finland', 'France', 'Gambia', 'Georgia', 'Germany', 'Gibraltar', 'Greece', 'Grenada', 'Guatemala', 'Haiti', 'Honduras', 'Hungary', 'Iceland', 'Ireland', 'Israel', 'Ireland', 'Italy', 'Jamaica', 'Japan', 'Kiribati', 'Kyrgyzstan', 'Latvia', 'Liechtenstein', 'Lithuania', 'Luxembourg', 'Macedonia', 'Malaysia', 'Maldives', 'Malta', 'Mauritius', 'Mexico', 'Moldova', 'Morocco', 'Netherlands', 'Nicaragua', 'Norway', 'Panama', 'Paraguay', 'Peru', 'Philippines', 'Portugal', 'Romania', 'Serbia', 'Seychelles', 'Singapore', 'Slovakia', 'Slovenia', 'Spain', 'Swaziland', 'Sweden', 'Switzerland', 'Tanzania', 'Thailand', 'Tunisia', 'Ukraine', 'Uruguay', 'Venezuela']",Romania,ROU,9490.75,8019000,642,45.943161,24.96676,11364000
"['Sri Lanka', 'Liechtenstein', 'Lithuania', 'Luxembourg', 'Austria', 'Malta', 'Netherlands', 'Norway', 'Poland', 'Portugal', 'Romania', 'Slovenia', 'Slovakia', 'Spain', 'Sweden', 'Switzerland', 'Belgium', 'United Kingdom', 'Bulgaria', 'Croatia', 'Cyprus', 'Czech Republic', 'Denmark', 'Estonia', 'Finland', 'France', 'Germany', 'Greece', 'Hungary', 'Ireland', 'Italy', 'Latvia', 'Australia', 'United States', 'Lesotho', 'Macedonia', 'Malawi', 'Malaysia', 'Mauritius', 'Mexico', 'Moldova', 'Morocco', 'New Zealand', 'Bahamas', 'Nicaragua', 'Pakistan', 'Panama', 'Paraguay', 'Peru', 'Philippines', 'Serbia', 'Barbados', 'Singapore', 'South Africa', 'Thailand', 'Tunisia', 'Turkey', 'Ukraine', 'Uruguay', 'Venezuela', 'Belize', 'Bolivia', 'Bosnia and Herzegovina', 'Botswana', 'Brazil', 'Brunei', 'Albania', 'Canada', 'Chile', 'Colombia', 'Costa Rica', 'Andorra', 'Dominica', 'Dominican Republic', 'Ecuador', 'Fiji', 'Gambia', 'Georgia', 'Antigua and Barbuda', 'Grenada', 'Guatemala', 'Haiti', 'Honduras', 'Argentina', 'Israel', 'Jamaica', 'Japan', 'Armenia', 'South Korea', 'Kyrgyzstan', 'Seychelles', 'Madagascar', 'Maldives', 'Nepal', 'Oman', 'Papua New Guinea', 'Bahrain', 'Qatar', 'Bangladesh', 'Tajikistan', 'Tanzania', 'Timor-Leste', 'Uganda', 'United Arab Emirates', 'Zimbabwe', 'Burkina Faso', 'Cambodia', 'Cape Verde', 'Comoros', 'Djibouti', 'Egypt', 'Indonesia', 'Iran', 'Jordan', 'Kenya', 'Kuwait', 'Laos', 'Lebanon']",Iceland,ISL,47349.5,800000,352,64.963051,-19.020835,259000
"['Algeria', 'Cape Verde', 'Comoros', 'Eritrea', 'Guinea', 'Kenya', 'Madagascar', 'Niger', 'Seychelles', 'Tunisia', 'Uganda', 'Bolivia', 'Chile', 'Cuba', 'Costa Rica', 'Ecuador', 'Dominica', 'Guyana', 'Haiti', 'Honduras', 'Grenada', 'Guatemala', 'Mexico', 'Nicaragua', 'Panama', 'Uruguay', 'Bangladesh', 'Cambodia', 'Indonesia', 'Iran', 'Israel', 'Hong Kong', 'Jordan', 'Laos', 'Lebanon', 'Macau', 'Malaysia', 'Maldives', 'Nepal', 'South Korea', 'Sri Lanka', 'Timor-Leste', 'Turkey', 'Yemen', 'Albania']",Libya,LBY,11964.7,0,434,26.3351,17.228331,0
"['Argentina', 'Armenia', 'Azerbaijan', 'Bahamas', 'Barbados', 'Belarus', 'Botswana', 'Brazil', 'Chile', 'Colombia', 'Cuba', 'Dominica', 'Ecuador', 'Estonia', 'Fiji', 'Gambia', 'Georgia', 'Grenada', 'Guatemala', 'Guyana', 'Haiti', 'Honduras', 'Israel', 'Jamaica', 'Kazakhstan', 'Kyrgyzstan', 'Laos', 'Macedonia', 'Malaysia', 'Mauritius', 'Mexico', 'Moldova', 'Morocco', 'Nicaragua', 'Panama', 'Paraguay', 'Peru', 'Philippines', 'Serbia', 'Swaziland', 'Tajikistan', 'Thailand', 'Tunisia', 'Turkey', 'Ukraine', 'Uruguay', 'Uzbekistan', 'Venezuela']",Saudi Arabia,SAU,25961.81,13380000,682,23.885942,45.079162,19154000
"['Sri Lanka', 'Zimbabwe', 'Georgia', 'Malaysia', 'Nicaragua', 'Tunisia', 'Turkey', 'Venezuela', 'Dominica', 'Ecuador', 'Haiti', 'Macau', 'Seychelles', 'Madagascar', 'Maldives', 'Nepal', 'Tajikistan', 'Tanzania', 'Timor-Leste', 'Uganda', 'Bolivia', 'Cape Verde', 'Comoros', 'Djibouti', 'Guyana', 'Armenia', 'Kenya', 'Laos', 'Lebanon']",Iran,IRN,4763.3,4769000,364,32.427908,53.688046,0
"['Sri Lanka', 'United Kingdom', 'Turkey', 'Oman', 'Saudi Arabia', 'Bahrain', 'United Arab Emirates', 'Kuwait', 'Malaysia', 'Mauritius', 'Morocco', 'New Zealand', 'Nicaragua', 'Panama', 'Philippines', 'Singapore', 'Bahamas', 'Swaziland', 'Thailand', 'Tunisia', 'Belarus', 'Bosnia and Herzegovina', 'Botswana', 'Dominica', 'Dominican Republic', 'Ecuador', 'Egypt', 'Georgia', 'Guatemala', 'Haiti', 'Honduras', 'Jordan', 'South Korea', 'Kyrgyzstan', 'Lebanon', 'Seychelles', 'Madagascar', 'Maldives', 'Nepal', 'Tajikistan', 'Tanzania', 'Timor-Leste', 'Bangladesh', 'Uganda', 'Yemen', 'Bolivia', 'Brunei', 'Cambodia', 'Cape Verde', 'Comoros', 'Djibouti', 'Indonesia', 'Iran', 'Armenia', 'Kenya', 'Laos']",Qatar,QAT,93714.1,2611000,634,25.354826,51.183884,0
"['Bahamas', 'Barbados', 'Panama', 'Fiji', 'Argentina', 'Honduras', 'Kenya', 'Lebanon', 'Malaysia', 'Morocco', 'Uruguay', 'Albania', 'Bolivia', 'Brazil', 'Chile', 'Colombia', 'Guatemala', 'Nicaragua', 'Paraguay', 'Serbia']",Turkey,TUR,10971.66,37795000,792,38.963745,35.243322,7526000
"['Antigua and Barbuda', 'Barbados', 'Guyana', 'United Kingdom', 'Peru', 'Panama', 'Fiji', 'Bahamas', 'Hong Kong', 'Ireland', 'Kenya', 'Turkey', 'Bolivia', 'Botswana', 'Chile', 'Colombia', 'Malawi', 'South Korea', 'Venezuela', 'Belize', 'Malaysia', 'Egypt', 'Philippines']",Dominica,,10343.16,78000,212,15.414999,-61.370976,0
"['Andorra', 'Sri Lanka', 'Moldova', 'Bahrain', 'Zimbabwe', 'Georgia', 'Nepal', 'Mauritius', 'Bhutan', 'Dominica', 'Ecuador', 'Fiji', 'Grenada', 'Haiti', 'Jamaica', 'Seychelles', 'Cambodia', 'Laos', 'Madagascar', 'Maldives', 'Tanzania', 'Thailand', 'Timor-Leste', 'Uganda', 'Bolivia', 'Cape Verde', 'Comoros', 'Djibouti', 'Ethiopia', 'Guyana', 'Indonesia', 'Jordan', 'Kenya']",India,IND,1497.5,6968000,356,20.593684,78.96288,11067000
"['Sri Lanka', 'Zimbabwe', 'Georgia', 'Australia', 'Latvia', 'Liechtenstein', 'Lithuania', 'Luxembourg', 'Malaysia', 'Malta', 'Austria', 'Netherlands', 'Nicaragua', 'Norway', 'Panama', 'Peru', 'Bahamas', 'Poland', 'Portugal', 'Romania', 'Russia', 'Serbia', 'Singapore', 'Slovakia', 'Slovenia', 'Spain', 'Swaziland', 'Sweden', 'Switzerland', 'Tunisia', 'Turkey', 'Ukraine', 'Belarus', 'Belgium', 'Bosnia and Herzegovina', 'Bulgaria', 'Albania', 'Chile', 'Croatia', 'Cuba', 'Cyprus', 'Czech Republic', 'Denmark', 'Dominica', 'Dominican Republic', 'Andorra', 'Ecuador', 'Estonia', 'Finland', 'France', 'Gambia', 'Germany', 'Greece', 'Guatemala', 'Haiti', 'Honduras', 'Hungary', 'Iceland', 'Argentina', 'Israel', 'Italy', 'Japan', 'Kenya', 'Kyrgyzstan', 'Laos', 'Lebanon', 'Madagascar', 'Maldives', 'Mauritius', 'Nepal', 'Oman', 'Bangladesh', 'Tanzania', 'Timor-Leste', 'Uganda', 'Bolivia', 'Cambodia', 'Cape Verde', 'Comoros', 'Djibouti', 'Egypt', 'Grenada', 'Iran', 'Jamaica', 'Jordan', 'Armenia']",Macedonia,MKD,4838.5,400000,807,0,0,0
"['Cape Verde', 'Comoros', 'Djibouti', 'Egypt', 'Kenya', 'Madagascar', 'Seychelles', 'Tanzania', 'Uganda', 'Argentina', 'Dominica', 'Bangladesh', 'Cambodia', 'Hong Kong', 'Israel', 'Jordan', 'Laos', 'Macau', 'Malaysia', 'Maldives', 'Nepal', 'Philippines', 'Singapore', 'South Korea', 'Sri Lanka', 'Timor-Leste', 'Turkey']",Haiti,HTI,819.9,295000,332,18.971187,-72.285215,0
"['Sri Lanka', 'Latvia', 'Liechtenstein', 'Luxembourg', 'Austria', 'Malta', 'Netherlands', 'Norway', 'Poland', 'Portugal', 'Romania', 'Slovakia', 'Slovenia', 'Spain', 'Sweden', 'Switzerland', 'United Kingdom', 'Belgium', 'Bulgaria', 'Croatia', 'Cyprus', 'Czech Republic', 'Denmark', 'Estonia', 'Finland', 'France', 'Germany', 'Greece', 'Hungary', 'Iceland', 'Ireland', 'Italy', 'Zimbabwe', 'Australia', 'United States', 'Macedonia', 'Malaysia', 'Mauritius', 'Mexico', 'Moldova', 'Morocco', 'Bahamas', 'New Zealand', 'Nicaragua', 'Panama', 'Paraguay', 'Peru', 'Philippines', 'Serbia', 'Singapore', 'Barbados', 'Swaziland', 'Tunisia', 'Turkey', 'Ukraine', 'Uruguay', 'Venezuela', 'Belize', 'Bolivia', 'Bosnia and Herzegovina', 'Botswana', 'Brazil', 'Brunei', 'Albania', 'Canada', 'Chile', 'Colombia', 'Costa Rica', 'Andorra', 'Dominica', 'Dominican Republic', 'Ecuador', 'Gambia', 'Georgia', 'Antigua and Barbuda', 'Grenada', 'Guatemala', 'Haiti', 'Honduras', 'Argentina', 'Israel', 'Japan', 'Armenia', 'Kiribati', 'South Korea', 'Kyrgyzstan', 'Seychelles', 'Lebanon', 'Madagascar', 'Maldives', 'Nepal', 'Oman', 'Bahrain', 'Papua New Guinea', 'Bangladesh', 'Tajikistan', 'Tanzania', 'Thailand', 'Timor-Leste', 'Uganda', 'United Arab Emirates', 'Burkina Faso', 'Cambodia', 'Cape Verde', 'Comoros', 'Djibouti', 'Egypt', 'Indonesia', 'Iran', 'Jamaica', 'Jordan', 'Kenya', 'Kuwait', 'Laos']",Lithuania,LTU,15529.7,2012000,440,55.169438,23.881275,1288000
"['Peru', 'Panama', 'Fiji', 'Argentina', 'Kenya', 'Bolivia', 'Brazil', 'Chile', 'Malaysia', 'Indonesia', 'Russia', 'Dominica', 'Philippines', 'Bahrain', 'Brunei']",Thailand,THA,5778.98,26547000,764,15.870032,100.992541,5970000
"['Hong Kong', 'Kenya', 'Malaysia', 'Bolivia', 'Indonesia', 'South Korea', 'Dominica']",Egypt,EGY,11089.21,9174000,818,26.820553,30.802498,5782000
"['India', 'Sri Lanka', 'Moldova', 'Bahrain', 'Turkey', 'Georgia', 'Japan', 'Laos', 'Malaysia', 'Morocco', 'Peru', 'Philippines', 'Singapore', 'Thailand', 'Brunei', 'Cambodia', 'Chile', 'Colombia', 'Dominica', 'Ecuador', 'Fiji', 'Gambia', 'Haiti', 'Hong Kong', 'Seychelles', 'Kenya', 'Kyrgyzstan', 'Madagascar', 'Maldives', 'Nepal', 'Nicaragua', 'Oman', 'Papua New Guinea', 'Tajikistan', 'Tanzania', 'Timor-Leste', 'Uganda', 'Zimbabwe', 'Cape Verde', 'Comoros', 'Djibouti', 'Iran', 'Armenia', 'Jordan']",Indonesia,IDN,3475.3,8802000,360,-0.789275,113.921327,5053000
"['Kenya', 'Kuwait', 'Bangladesh', 'Colombia', 'Lebanon', 'Egypt', 'Dominica', 'Philippines', 'Thailand', 'Hong Kong']",Bhutan,BTN,7404.74,116000,64,27.514162,90.433601,0
"['Austria', 'Belgium', 'Cyprus', 'Czech Republic', 'Denmark', 'Estonia', 'Finland', 'France', 'Germany', 'Greece', 'Hungary', 'Iceland', 'Ireland', 'Italy', 'Latvia', 'Liechtenstein', 'Lithuania', 'Luxembourg', 'Malta', 'Netherlands', 'Norway', 'Poland', 'Portugal', 'Romania', 'Slovakia', 'Slovenia', 'Spain', 'Sweden', 'Switzerland', 'United Kingdom', 'Mexico', 'Panama', 'Fiji', 'Antigua and Barbuda', 'Argentina', 'Bahamas', 'Barbados', 'Honduras', 'Hong Kong', 'Malaysia', 'Morocco', 'New Zealand', 'Uruguay', 'Albania', 'Bangladesh', 'Bosnia and Herzegovina', 'Botswana', 'Brazil', 'Brunei', 'Chile', 'Costa Rica', 'Guatemala', 'Japan', 'Moldova', 'Paraguay', 'Serbia', 'South Korea', 'Ukraine', 'Venezuela', 'Belize', 'Lebanon', 'Egypt', 'Indonesia', 'Dominica', 'Philippines', 'Thailand']",Bulgaria,BGR,15731.67,6898000,100,42.733883,25.48583,3930000
"['Kenya', 'Bolivia', 'Dominica', 'Philippines']",Burundi,BDI,267.11,142000,108,-3.373056,29.918886,0
"['Austria', 'Belgium', 'Bulgaria', 'Cyprus', 'Czech Republic', 'Denmark', 'Estonia', 'Finland', 'France', 'Germany', 'Greece', 'Hungary', 'Iceland', 'Ireland', 'Italy', 'Latvia', 'Liechtenstein', 'Lithuania', 'Luxembourg', 'Malta', 'Norway', 'Poland', 'Portugal', 'Romania', 'Slovakia', 'Slovenia', 'Spain', 'Sweden', 'Switzerland', 'United Kingdom', 'Bahamas', 'Canada', 'Peru', 'Mexico', 'Panama', 'Fiji', 'Antigua and Barbuda', 'Argentina', 'Barbados', 'Dominica', 'Guyana', 'Honduras', 'Hong Kong', 'Japan', 'Kenya', 'Kuwait', 'Malaysia', 'Morocco', 'New Zealand', 'Turkey', 'Uruguay', 'Albania', 'Bangladesh', 'Bolivia', 'Bosnia and Herzegovina', 'Botswana', 'Brazil', 'Brunei', 'Chile', 'Colombia', 'Costa Rica', 'Guatemala', 'Malawi', 'Moldova', 'Nicaragua', 'Paraguay', 'Serbia']",Netherlands,NLD,50793.14,11300000,528,52.132633,5.291266,18560000
"['Sri Lanka', 'Cuba', 'Malaysia', 'Azerbaijan', 'Philippines', 'Russia', 'Barbados', 'Tajikistan', 'Belarus', 'Turkey', 'Ukraine', 'Uzbekistan', 'Dominica', 'Ecuador', 'Georgia', 'Antigua and Barbuda', 'Haiti', 'Armenia', 'Kazakhstan', 'Moldova', 'Seychelles', 'Madagascar', 'Maldives', 'Mauritius', 'Nepal', 'Nicaragua', 'Bangladesh', 'Timor-Leste', 'Uganda', 'Bolivia', 'Cambodia', 'Cape Verde', 'Comoros', 'Djibouti', 'Grenada', 'India', 'Jamaica', 'Jordan', 'Kenya', 'Laos', 'Lebanon']",Kyrgyzstan,KGZ,1263.4,3076000,417,41.20438,74.766098,580000
"['Barbados', 'United Kingdom', 'Peru', 'Panama', 'Fiji', 'Argentina', 'Bahamas', 'Guyana', 'Honduras', 'Hong Kong', 'Ireland', 'Kenya', 'Malaysia', 'Morocco', 'New Zealand', 'Uruguay', 'Austria', 'Belgium', 'Czech Republic', 'Denmark', 'Estonia', 'Finland', 'France', 'Germany', 'Greece', 'Hungary', 'Iceland', 'Italy', 'Latvia', 'Liechtenstein', 'Lithuania', 'Luxembourg', 'Malta', 'Netherlands', 'Norway', 'Poland', 'Portugal', 'Slovakia', 'Slovenia', 'Spain', 'Sweden', 'Switzerland', 'Albania', 'Bolivia', 'Bosnia and Herzegovina', 'Botswana', 'Chile', 'Colombia', 'Costa Rica', 'Guatemala', 'Nicaragua', 'Paraguay', 'Russia', 'South Africa', 'South Korea', 'Thailand', 'Ukraine', 'Venezuela', 'Philippines', 'Antigua and Barbuda', 'Lebanon', 'Bangladesh', 'Egypt', 'Indonesia']",Brazil,BRA,15037.46,5813000,76,-14.235004,-51.92528,8666000
"['Antigua and Barbuda', 'Canada', 'Dominica', 'Guyana', 'United Kingdom', 'Peru', 'Mexico', 'Panama', 'Fiji', 'Argentina', 'Bahamas', 'Honduras', 'Hong Kong', 'Ireland', 'Kenya', 'Turkey', 'Uruguay', 'Austria', 'Belgium', 'Czech Republic', 'Denmark', 'Estonia', 'Finland', 'France', 'Germany', 'Greece', 'Hungary', 'Iceland', 'Italy', 'Latvia', 'Liechtenstein', 'Lithuania', 'Luxembourg', 'Malta', 'Netherlands', 'Norway', 'Poland', 'Portugal', 'Slovakia', 'Slovenia', 'Spain', 'Sweden', 'Switzerland', 'Bangladesh', 'Botswana', 'Brazil', 'Chile', 'Colombia', 'Costa Rica', 'Guatemala', 'Malawi', 'Nicaragua', 'South Korea', 'Venezuela', 'Belize', 'Lebanon', 'Malaysia', 'Egypt', 'South Africa']",Barbados,,15573.99,509000,52,13.193887,-59.543198,0
"['Austria', 'Belgium', 'Bulgaria', 'Cyprus', 'Czech Republic', 'Estonia', 'Finland', 'France', 'Germany', 'Greece', 'Hungary', 'Iceland', 'Ireland', 'Italy', 'Latvia', 'Liechtenstein', 'Lithuania', 'Luxembourg', 'Malta', 'Netherlands', 'Norway', 'Poland', 'Portugal', 'Romania', 'Slovakia', 'Slovenia', 'Spain', 'Sweden', 'Switzerland', 'United Kingdom', 'Bahamas', 'Canada', 'Peru', 'Mexico', 'Panama', 'Fiji', 'Antigua and Barbuda', 'Argentina', 'Barbados', 'Dominica', 'Guyana', 'Honduras', 'Hong Kong', 'Japan', 'Malaysia', 'Morocco', 'New Zealand', 'Niger', 'Uruguay', 'Albania', 'Bangladesh', 'Bolivia', 'Bosnia and Herzegovina', 'Botswana', 'Brazil', 'Brunei', 'Chile', 'Colombia', 'Costa Rica', 'Guatemala', 'Malawi', 'Moldova', 'Paraguay', 'Serbia']",Denmark,DNK,43782.17,8557000,208,56.26392,9.501785,6977000
"['Austria', 'Belgium', 'Bulgaria', 'Cyprus', 'Czech Republic', 'Denmark', 'Estonia', 'Finland', 'Germany', 'Greece', 'Hungary', 'Iceland', 'Ireland', 'Italy', 'Latvia', 'Liechtenstein', 'Lithuania', 'Luxembourg', 'Malta', 'Netherlands', 'Norway', 'Poland', 'Portugal', 'Romania', 'Slovakia', 'Slovenia', 'Spain', 'Sweden', 'Switzerland', 'United Kingdom', 'Canada', 'Peru', 'Mexico', 'Panama', 'Fiji', 'Antigua and Barbuda', 'Argentina', 'Bahamas', 'Barbados', 'Dominica', 'Guyana', 'Honduras', 'Hong Kong', 'Japan', 'Kenya', 'Kuwait', 'Malaysia', 'Morocco', 'New Zealand', 'Uruguay', 'Albania', 'Bangladesh', 'Bolivia', 'Bosnia and Herzegovina', 'Botswana', 'Brazil', 'Brunei', 'Chile', 'Colombia', 'Costa Rica', 'Guatemala', 'Malawi', 'Moldova', 'Nicaragua', 'Paraguay', 'Serbia', 'South Africa', 'South Korea', 'Ukraine', 'Venezuela', 'Belize', 'Lebanon', 'Egypt', 'Indonesia', 'Thailand', 'United Arab Emirates', 'Philippines', 'Bahrain']",France,FRA,37532.39,84726000,250,46.227638,2.213749,26243000
"['Russia', 'Ukraine', 'Peru', 'Kenya', 'Malaysia', 'Azerbaijan', 'Bolivia', 'Moldova', 'Nicaragua', 'Venezuela', 'Turkey', 'Antigua and Barbuda', 'Belize', 'Lebanon', 'Serbia', 'Barbados', 'Dominica']",Belarus,BLR,17619.77,137000,112,53.709807,27.953389,708000
"['Austria', 'Belgium', 'Denmark', 'Estonia', 'Finland', 'France', 'Germany', 'Georgia', 'Greece', 'Hungary', 'Italy', 'Latvia', 'Lithuania', 'Luxembourg', 'Malta', 'Netherlands', 'Poland', 'Portugal', 'Slovakia', 'Slovenia', 'Spain', 'Sweden', 'Bulgaria', 'Cyprus', 'Iceland', 'Ireland', 'Romania', 'Croatia', 'Norway', 'Serbia', 'Switzerland', 'Turkey', 'Algeria', 'Botswana', 'Comoros', 'Egypt', 'Ethiopia', 'Kenya', 'Lesotho', 'Malawi', 'Madagascar', 'Mauritius', 'Nigeria', 'Swaziland', 'Tanzania', 'Tunisia', 'Uganda', 'Zimbabwe', 'Bangladesh', 'China', 'Malaysia', 'Maldives', 'Macau', 'Philippines', 'Singapore', 'Fiji', 'Cambodia', 'Bahamas', 'Barbados', 'Bermuda', 'Dominica', 'Jamaica', 'Brazil', 'Belize', 'Oman']",Seychelles,,16185.9,230000,690,-4.679574,55.491977,54000
"['Canada', 'United Kingdom', 'Peru', 'Argentina', 'Bahamas', 'Honduras', 'Japan', 'Kenya', 'Malaysia', 'Morocco', 'Uruguay', 'Austria', 'Belgium', 'Czech Republic', 'Denmark', 'Estonia', 'Finland', 'France', 'Germany', 'Greece', 'Hungary', 'Iceland', 'Italy', 'Latvia', 'Liechtenstein', 'Lithuania', 'Luxembourg', 'Malta', 'Netherlands', 'Norway', 'Poland', 'Portugal', 'Slovakia', 'Slovenia', 'Spain', 'Sweden', 'Switzerland', 'Albania', 'Bolivia', 'Bosnia and Herzegovina', 'Botswana', 'Brazil', 'Chile', 'Colombia', 'Costa Rica', 'Guatemala', 'Nicaragua', 'Paraguay', 'Serbia', 'Venezuela', 'Lebanon', 'Egypt', 'South Korea', 'Barbados', 'Dominica', 'Hong Kong']",Croatia,HRV,13607.51,9927000,191,45.1,15.2,2280000
"['Armenia', 'Azerbaijan', 'Bangladesh', 'Belarus', 'Bermuda', 'Brunei', 'Cambodia', 'Comoros', 'Djibouti', 'Dominica', 'Timor-Leste', 'Ecuador', 'Egypt', 'Georgia', 'Haiti', 'Indonesia', 'Iraq', 'Jordan', 'Kenya', 'Macau', 'Madagascar', 'Malaysia', 'Maldives', 'Nepal', 'Papua New Guinea', 'Philippines', 'Seychelles', 'Singapore', 'Tanzania', 'Thailand', 'Uganda']",Laos,LAO,1660.7,2510000,418,19.85627,102.495496,0
"['Sri Lanka', 'Latvia', 'Austria', 'Liechtenstein', 'Lithuania', 'Luxembourg', 'Malta', 'Netherlands', 'Norway', 'Poland', 'Portugal', 'Romania', 'Slovakia', 'Slovenia', 'Spain', 'Sweden', 'Switzerland', 'Belgium', 'United Kingdom', 'Bulgaria', 'Croatia', 'Cyprus', 'Czech Republic', 'Denmark', 'Estonia', 'Finland', 'France', 'Germany', 'Greece', 'Hungary', 'Iceland', 'Italy', 'Turkey', 'Australia', 'United States', 'Kiribati', 'South Korea', 'Kyrgyzstan', 'Lesotho', 'Macedonia', 'Malawi', 'Malaysia', 'Mauritius', 'Mexico', 'Moldova', 'Bahamas', 'Morocco', 'New Zealand', 'Nicaragua', 'Panama', 'Paraguay', 'Peru', 'Philippines', 'Barbados', 'Serbia', 'Singapore', 'South Africa', 'Swaziland', 'Thailand', 'Tunisia', 'Uganda', 'Ukraine', 'Uruguay', 'Belize', 'Venezuela', 'Bolivia', 'Bosnia and Herzegovina', 'Botswana', 'Brazil', 'Brunei', 'Albania', 'Canada', 'Chile', 'Colombia', 'Costa Rica', 'Andorra', 'Dominica', 'Dominican Republic', 'Ecuador', 'Fiji', 'Antigua and Barbuda', 'Gambia', 'Georgia', 'Grenada', 'Guatemala', 'Guyana', 'Argentina', 'Haiti', 'Honduras', 'Armenia', 'Israel', 'Jamaica', 'Japan', 'Papua New Guinea', 'United Arab Emirates', 'Seychelles', 'Kuwait', 'Laos', 'Lebanon', 'Madagascar', 'Maldives', 'Nepal', 'Bahrain', 'Oman', 'Bangladesh', 'Qatar', 'Tajikistan', 'Tanzania', 'Timor-Leste', 'Zimbabwe', 'Burkina Faso', 'Cambodia', 'Cape Verde', 'Comoros', 'Djibouti', 'Egypt', 'Ethiopia', 'Indonesia', 'Iran', 'Jordan', 'Kenya']",Ireland,IRL,50478.4,8260000,372,53.41291,-8.24389,7047000
"['Sri Lanka', 'India', 'Malawi', 'Mauritius', 'Pakistan', 'Philippines', 'Singapore', 'Dominica', 'Gambia', 'Haiti', 'Seychelles', 'Madagascar', 'Maldives', 'Tanzania', 'Timor-Leste', 'Uganda', 'Bolivia', 'Cambodia', 'Cape Verde', 'Comoros', 'Djibouti', 'Kenya', 'Laos']",Nepal,NPL,694.1,798000,524,28.394857,84.124008,589000
"['Russia', 'Ukraine', 'Bahamas', 'Albania', 'Bolivia', 'Moldova', 'Serbia', 'Antigua and Barbuda', 'Lebanon', 'Turkey', 'Barbados', 'Dominica']",Armenia,ARM,3504.77,1084000,51,40.069099,45.038189,1083000
"['Sri Lanka', 'Malawi', 'Mauritius', 'Niger', 'Nigeria', 'Philippines', 'Bangladesh', 'Singapore', 'Barbados', 'Swaziland', 'Tanzania', 'Belize', 'Zimbabwe', 'Benin', 'Burkina Faso', 'Cape Verde', 'Dominica', 'Ecuador', 'Fiji', 'Gambia', 'Grenada', 'Guinea', 'Haiti', 'Jamaica', 'Kenya', 'Liberia', 'Seychelles', 'Madagascar', 'Maldives', 'Nepal', 'Nicaragua', 'Timor-Leste', 'Uganda', 'Bolivia', 'Cambodia', 'Comoros', 'Djibouti']",Ghana,GHA,1858.2,1031000,288,7.946527,-1.023194,0
"['Sri Lanka', 'Lithuania', 'Luxembourg', 'Macedonia', 'Malaysia', 'Malta', 'Austria', 'Mauritius', 'Mexico', 'Moldova', 'Netherlands', 'New Zealand', 'Nicaragua', 'Norway', 'Philippines', 'Poland', 'Portugal', 'Romania', 'Russia', 'Serbia', 'Singapore', 'Slovakia', 'Slovenia', 'South Africa', 'Spain', 'Sweden', 'Switzerland', 'Tanzania', 'Thailand', 'Turkey', 'Belgium', 'United Kingdom', 'Belize', 'Bosnia and Herzegovina', 'Brazil', 'Brunei', 'Bulgaria', 'Albania', 'Cape Verde', 'Chile', 'Croatia', 'Cyprus', 'Czech Republic', 'Denmark', 'Dominica', 'Andorra', 'Dominican Republic', 'Ecuador', 'Egypt', 'Estonia', 'Fiji', 'Finland', 'France', 'Gambia', 'Germany', 'Greece', 'Grenada', 'Haiti', 'Hungary', 'Iceland', 'Indonesia', 'Ireland', 'Israel', 'Italy', 'Japan', 'Kiribati', 'South Korea', 'Latvia', 'Liechtenstein', 'Seychelles', 'Madagascar', 'Maldives', 'Nepal', 'Papua New Guinea', 'Bangladesh', 'Tajikistan', 'Timor-Leste', 'Uganda', 'Cambodia', 'Comoros', 'Djibouti', 'Iran', 'Jordan', 'Kenya', 'Armenia', 'Lebanon']",Macau,,91376,14268000,0,22.198745,113.543873,671000
"['Kenya', 'Bolivia', 'Dominica', 'Philippines', 'Hong Kong']",Equatorial Guinea,GNQ,33768.29,0,226,1.650801,10.267895,0
"['Benin', 'Kenya', 'Niger', 'Bolivia', 'Cameroon', 'Dominica', 'Philippines', 'Hong Kong']",Central African Republic,CAF,603.74,54000,140,6.611111,20.939444,38000
"['Sri Lanka', 'Malaysia', 'Dominica', 'Ecuador', 'Haiti', 'Seychelles', 'Madagascar', 'Maldives', 'Tanzania', 'Timor-Leste', 'Turkey', 'Uganda', 'Yemen', 'Cape Verde', 'Comoros', 'Djibouti', 'Laos', 'Lebanon']",Iraq,IRQ,6862.5,892000,368,33.223191,43.679291,0
"['Austria', 'Belgium', 'Bulgaria', 'Cyprus', 'Denmark', 'Estonia', 'Finland', 'France', 'Germany', 'Greece', 'Hungary', 'Iceland', 'Ireland', 'Italy', 'Latvia', 'Liechtenstein', 'Lithuania', 'Luxembourg', 'Malta', 'Netherlands', 'Norway', 'Poland', 'Portugal', 'Romania', 'Slovakia', 'Slovenia', 'Sweden', 'Switzerland', 'Canada', 'Peru', 'Mexico', 'Panama', 'Fiji', 'Argentina', 'Bahamas', 'Barbados', 'Honduras', 'Japan', 'Kenya', 'Kuwait', 'Malaysia', 'Morocco', 'Uruguay', 'Albania', 'Bangladesh', 'Bolivia', 'Botswana', 'Brazil', 'Brunei', 'Chile', 'Colombia', 'Costa Rica', 'Guatemala', 'Moldova', 'Nicaragua', 'Paraguay', 'Serbia', 'Ukraine', 'Venezuela', 'Belize', 'Lebanon', 'Egypt', 'Indonesia', 'Thailand', 'Philippines', 'Bahrain']",Spain,ESP,29882.14,60661000,724,40.463667,-3.74922,11246000
"['Austria', 'Belgium', 'Bulgaria', 'Cyprus', 'Denmark', 'Estonia', 'Finland', 'France', 'Germany', 'Greece', 'Hungary', 'Iceland', 'Ireland', 'Italy', 'Latvia', 'Liechtenstein', 'Lithuania', 'Luxembourg', 'Malta', 'Netherlands', 'Norway', 'Poland', 'Portugal', 'Romania', 'Slovakia', 'Slovenia', 'Spain', 'Sweden', 'Japan', 'Bahamas', 'Canada', 'Peru', 'Mexico', 'Panama', 'Fiji', 'Argentina', 'Bahamas', 'Barbados', 'Honduras', 'Japan', 'Kenya', 'Kuwait', 'Malaysia', 'Morocco', 'Uruguay', 'Albania', 'Bangladesh', 'Bolivia', 'Botswana', 'Brazil', 'Brunei', 'Chile', 'Colombia', 'Costa Rica', 'Guatemala', 'Moldova', 'Nicaragua', 'Paraguay', 'Serbia', 'Ukraine', 'Venezuela', 'Belize', 'Lebanon', 'Egypt', 'Indonesia', 'Thailand', 'Dominica', 'Philippines', 'Bahrain', 'Brunei']",Switzerland,CHE,84748.37,8967000,756,46.818188,8.227512,12403000
"['Barbados', 'Dominica', 'Fiji', 'Bahamas', 'Benin', 'Hong Kong', 'Kenya', 'Niger', 'Bangladesh', 'Bolivia', 'Botswana', 'Malawi', 'Belize', 'Malaysia']",Gambia,GMB,1661.42,171000,270,13.443182,-15.310139,0
"['Russia', 'Ukraine', 'Bahamas', 'Albania', 'Bolivia', 'Moldova', 'Antigua and Barbuda', 'Lebanon', 'Barbados', 'Dominica']",Azerbaijan,AZE,17143.11,2130000,31,40.143105,47.576927,4285000
"['Austria', 'Belgium', 'Bulgaria', 'Cyprus', 'Denmark', 'Estonia', 'Finland', 'France', 'Germany', 'Greece', 'Hungary', 'Iceland', 'Ireland', 'Italy', 'Latvia', 'Liechtenstein', 'Lithuania', 'Luxembourg', 'Malta', 'Netherlands', 'Norway', 'Poland', 'Portugal', 'Romania', 'Slovenia', 'Spain', 'Sweden', 'Switzerland', 'Canada', 'Peru', 'Mexico', 'Panama', 'Fiji', 'Argentina', 'Bahamas', 'Barbados', 'Honduras', 'Kenya', 'Kuwait', 'Malaysia', 'Morocco', 'Uruguay', 'Albania', 'Bangladesh', 'Bolivia', 'Botswana', 'Brazil', 'Brunei', 'Chile', 'Colombia', 'Guatemala', 'Japan', 'Moldova', 'Nicaragua', 'Paraguay', 'Serbia', 'Ukraine', 'Venezuela', 'Belize', 'Lebanon', 'Turkey', 'Egypt', 'Indonesia', 'Thailand', 'Dominica', 'Philippines']",Slovakia,SVK,18049.18,6235000,703,48.669026,19.699024,2129000
"['Barbados', 'Fiji', 'Bahamas', 'Kenya', 'Bolivia', 'Botswana', 'Malawi', 'Belize', 'Malaysia', 'Dominica', 'Philippines']",Zimbabwe,ZWE,953.38,1833000,716,-19.015438,29.154857,693000
"['India', 'Australia', 'Sri Lanka', 'United States', 'South Korea', 'Kyrgyzstan', 'Laos', 'Latvia', 'Lesotho', 'Liechtenstein', 'Lithuania', 'Luxembourg', 'Macedonia', 'Malawi', 'Malaysia', 'Austria', 'Malta', 'Mauritius', 'Mexico', 'Moldova', 'Morocco', 'Netherlands', 'New Zealand', 'Nicaragua', 'Norway', 'Bahamas', 'Panama', 'Paraguay', 'Peru', 'Philippines', 'Poland', 'Portugal', 'Romania', 'Serbia', 'Singapore', 'Slovakia', 'Slovenia', 'South Africa', 'Spain', 'Swaziland', 'Sweden', 'Switzerland', 'Barbados', 'Thailand', 'Tunisia', 'Turkey', 'Ukraine', 'United Kingdom', 'Uruguay', 'Venezuela', 'Belgium', 'Belize', 'Bolivia', 'Bosnia and Herzegovina', 'Botswana', 'Albania', 'Brunei', 'Bulgaria', 'Canada', 'Cape Verde', 'Chile', 'China', 'Colombia', 'Costa Rica', 'Croatia', 'Andorra', 'Cyprus', 'Czech Republic', 'Denmark', 'Dominica', 'Dominican Republic', 'Ecuador', 'Estonia', 'Fiji', 'Finland', 'France', 'Antigua and Barbuda', 'Georgia', 'Germany', 'Greece', 'Grenada', 'Guatemala', 'Guyana', 'Argentina', 'Haiti', 'Honduras', 'Hungary', 'Iceland', 'Ireland', 'Israel', 'Italy', 'Jamaica', 'Kazakhstan', 'Kiribati', 'Gambia', 'United Arab Emirates', 'Seychelles', 'Kuwait', 'Lebanon', 'Madagascar', 'Maldives', 'Nepal', 'Oman', 'Papua New Guinea', 'Qatar', 'Bahrain', 'Bangladesh', 'Tajikistan', 'Tanzania', 'Timor-Leste', 'Uganda', 'Zimbabwe', 'Cambodia', 'Comoros', 'Djibouti', 'Egypt', 'Ethiopia', 'Indonesia', 'Iran', 'Armenia', 'Jordan', 'Kenya']",Japan,JPN,38633.7,10364000,392,36.204824,138.252924,15446000
"['Kenya', 'Bolivia', 'Dominica', 'Philippines', 'Thailand']",Ethiopia,ETH,1380,681000,231,9.145,40.489673,0
"['Austria', 'Belgium', 'Bulgaria', 'Cyprus', 'Czech Republic', 'Denmark', 'Estonia', 'France', 'Germany', 'Greece', 'Hungary', 'Iceland', 'Ireland', 'Italy', 'Latvia', 'Liechtenstein', 'Lithuania', 'Luxembourg', 'Malta', 'Netherlands', 'Norway', 'Poland', 'Portugal', 'Romania', 'Slovakia', 'Slovenia', 'Spain', 'Sweden', 'Switzerland', 'United Kingdom', 'Canada', 'Peru', 'Mexico', 'Panama', 'Fiji', 'Antigua and Barbuda', 'Argentina', 'Bahamas', 'Barbados', 'Guyana', 'Honduras', 'Hong Kong', 'Japan', 'Kenya', 'Kuwait', 'Malaysia', 'Morocco', 'New Zealand', 'Uruguay', 'Albania', 'Bangladesh', 'Bolivia', 'Bosnia and Herzegovina', 'Botswana', 'Brazil', 'Brunei', 'Chile', 'Colombia', 'Costa Rica', 'Guatemala', 'Malawi', 'Moldova', 'Nicaragua', 'Paraguay', 'Serbia', 'South Africa', 'South Korea', 'Ukraine', 'Venezuela', 'Belize', 'Lebanon', 'Egypt', 'Indonesia', 'Thailand', 'United Arab Emirates', 'Dominica', 'Philippines', 'Bahrain']",Finland,FIN,39740.21,4192000,246,61.92411,25.748151,8562000
"['Benin', 'Kenya', 'Niger', 'Bangladesh', 'Bolivia', 'Malaysia', 'Dominica', 'Philippines', 'Hong Kong']",Burkina Faso,BFA,1684.48,218000,854,12.238333,-1.561593,0
"['Ecuador', 'Fiji', 'Gambia', 'Grenada', 'Haiti', 'Iran', 'Kiribati', 'South Korea', 'Lesotho', 'Macau', 'Singapore', 'Swaziland', 'Venezuela', 'Antigua and Barbuda', 'Argentina', 'Bahamas', 'Barbados', 'Belize', 'Bermuda', 'Brazil', 'Dominica', 'Gibraltar', 'Guyana', 'Hong Kong', 'Ireland', 'Jamaica', 'Malaysia', 'Peru', 'Philippines', 'Chile', 'Colombia', 'Costa Rica', 'Cuba', 'Israel', 'Panama', 'British Virgin Islands', 'Cayman Islands', 'United Kingdom', 'Zimbabwe', 'Cambodia', 'Cape Verde', 'Central African Republic', 'Djibouti', 'Egypt', 'Jordan', 'Kenya', 'Laos', 'Madagascar', 'Malawi', 'Maldives', 'Mauritius', 'Seychelles', 'Uganda', 'Dominican Republic', 'Botswana', 'Bangladesh', 'Tanzania']",Grenada,,7890.5,116000,308,12.262776,-61.604171,0
"['Argentina', 'Japan', 'Turkey', 'Uruguay', 'Bolivia', 'Botswana', 'Chile', 'Colombia', 'South Korea', 'Hong Kong', 'Lebanon', 'Egypt', 'Philippines']",Dominican Republic,DOM,12186.39,4690000,214,18.735693,-70.162651,436000
['Dominica'],Afghanistan,AFG,1946.19,15000,4,33.93911,67.709953,0
"['Argentina', 'Bahamas', 'Barbados', 'Bolivia', 'Brazil', 'Brunei', 'Chile', 'Colombia', 'Dominica', 'Ecuador', 'Fiji', 'Guatemala', 'Guyana', 'Haiti', 'Honduras', 'Indonesia', 'Israel', 'Macedonia', 'Malaysia', 'Mexico', 'Morocco', 'Panama', 'Paraguay', 'Philippines', 'Russia', 'Singapore', 'Thailand', 'Turkey', 'Uruguay', 'Venezuela']",Peru,PER,6661.6,3164000,604,-9.189967,-75.015152,2364000
"['Benin', 'Kenya', 'Morocco', 'Bolivia', 'Indonesia', 'Dominica', 'Hong Kong']",Algeria,DZA,5360.7,2395000,12,28.033886,1.659626,1715000
"['Panama', 'Bahamas', 'Kenya', 'Malaysia', 'Albania', 'Bolivia', 'Chile', 'Serbia', 'South Korea', 'Ukraine', 'Dominica', 'Hong Kong']",Bosnia and Herzegovina,BIH,9535.54,529000,70,43.915886,17.679076,0
"['Russia', 'Ukraine', 'Kenya', 'Azerbaijan', 'Bolivia', 'Moldova', 'Lebanon', 'Barbados', 'Dominica', 'Thailand']",Uzbekistan,UZB,1877.96,1969000,860,41.377491,64.585262,1610000
"['Algeria', 'Botswana', 'Cape Verde', 'Comoros', 'Djibouti', 'Egypt', 'Kenya', 'Lesotho', 'Madagascar', 'Malawi', 'Mauritius', 'Seychelles', 'South Africa', 'Swaziland', 'Tanzania', 'Tunisia', 'Uganda', 'Zimbabwe', 'Antigua and Barbuda', 'Argentina', 'Bahamas', 'Barbados', 'Belize', 'Bermuda', 'Bolivia', 'Brazil', 'British Virgin Islands', 'Canada', 'Cayman Islands', 'Chile', 'Colombia', 'Cuba', 'Dominica', 'Dominican Republic', 'Ecuador', 'Grenada', 'Guatemala', 'Guyana', 'Haiti', 'Honduras', 'Jamaica', 'Mexico', 'Nicaragua', 'Panama', 'Peru', 'Uruguay', 'Venezuela', 'Armenia', 'Bahrain', 'Bangladesh', 'Cambodia', 'Hong Kong', 'Indonesia', 'Iran', 'Japan', 'Jordan', 'Kazakhstan', 'Kuwait', 'Kyrgyzstan', 'Laos', 'Lebanon', 'Macau', 'Malaysia', 'Maldives', 'Nepal', 'North Korea', 'Oman', 'Philippines', 'Qatar', 'Singapore', 'South Korea', 'Sri Lanka', 'Tajikistan', 'Thailand', 'Timor-Leste', 'Turkey', 'United Arab Emirates', 'Yemen', 'Albania', 'Andorra', 'Bosnia and Herzegovina', 'Bulgaria', 'Croatia', 'Cyprus', 'Gibraltar', 'Georgia', 'Ireland', 'Macedonia', 'Moldova', 'Romania', 'Australia', 'Fiji', 'Kiribati', 'New Zealand', 'Papua New Guinea']",Malaysia,MYS,10538.1,25715000,458,4.210484,101.975766,0
"['India', 'Sri Lanka', 'Kiribati', 'South Korea', 'Latvia', 'Lesotho', 'Liechtenstein', 'Lithuania', 'Luxembourg', 'Macedonia', 'Malawi', 'Argentina', 'Malta', 'Mauritius', 'Mexico', 'Moldova', 'Netherlands', 'New Zealand', 'Nicaragua', 'Norway', 'Panama', 'Paraguay', 'Peru', 'Philippines', 'Poland', 'Portugal', 'Romania', 'Russia', 'Serbia', 'Austria', 'Singapore', 'Slovakia', 'Slovenia', 'South Africa', 'Spain', 'Swaziland', 'Sweden', 'Switzerland', 'Thailand', 'Bahamas', 'Turkey', 'Ukraine', 'United Kingdom', 'Uruguay', 'Barbados', 'Belgium', 'Belize', 'Bosnia and Herzegovina', 'Botswana', 'Brazil', 'Bulgaria', 'Canada', 'Central African Republic', 'Chile', 'Colombia', 'Costa Rica', 'Croatia', 'Cyprus', 'Czech Republic', 'Denmark', 'Dominica', 'Dominican Republic', 'Ecuador', 'Albania', 'Estonia', 'Fiji', 'Finland', 'France', 'Georgia', 'Germany', 'Greece', 'Grenada', 'Guatemala', 'Haiti', 'Honduras', 'Hungary', 'Iceland', 'Andorra', 'Ireland', 'Italy', 'Jamaica', 'Japan', 'Seychelles', 'Kenya', 'Kyrgyzstan', 'Laos', 'Madagascar', 'Maldives', 'Armenia', 'Nepal', 'Papua New Guinea', 'Azerbaijan', 'Tajikistan', 'Tanzania', 'Timor-Leste', 'Uganda', 'Zimbabwe', 'Cambodia', 'Cape Verde', 'Comoros', 'Djibouti', 'Ethiopia', 'Jordan']",Israel,ISR,36050.7,2962000,376,31.046051,34.851612,4007000
"['Armenia', 'Azerbaijan', 'Bangladesh', 'Belarus', 'Benin', 'Burkina Faso', 'Cambodia', 'Cape Verde', 'Central African Republic', 'Comoros', 'Djibouti', 'Dominica', 'Timor-Leste', 'Ecuador', 'Egypt', 'Georgia', 'Ghana', 'Guinea', 'Haiti', 'Iraq', 'Jordan', 'Kenya', 'Laos', 'Macau', 'Madagascar', 'Maldives', 'Niger', 'Nigeria', 'Philippines', 'Seychelles', 'Singapore', 'South Korea', 'Tanzania', 'Uganda']",Liberia,LBR,454.3,0,430,6.428055,-9.429499,0
"['Antigua and Barbuda', 'Argentina', 'Bahamas', 'Bermuda', 'Barbados', 'Belize', 'Botswana', 'Brazil', 'Cayman Islands', 'Colombia', 'Costa Rica', 'Dominica', 'Dominican Republic', 'Ecuador', 'Fiji', 'Gambia', 'Grenada', 'Haiti', 'Armenia', 'Bangladesh', 'Bolivia', 'Cambodia', 'Cape Verde', 'Comoros', 'Djibouti', 'Egypt', 'Iran', 'Jordan', 'Kenya', 'Laos', 'Macau', 'Madagascar', 'Maldives', 'Nepal', 'Nicaragua', 'Seychelles', 'Sri Lanka', 'Tanzania', 'Timor-Leste', 'Uganda', 'Hong Kong', 'Ireland', 'Jamaica', 'Lesotho', 'Malawi', 'Malaysia', 'Mauritius', 'Panama', 'Peru', 'Philippines', 'Singapore', 'South Africa', 'South Korea', 'Swaziland']",Guyana,GUY,3739.5,177000,328,4.860416,-58.93018,0
"['Canada', 'United Kingdom', 'Peru', 'Mexico', 'Panama', 'Argentina', 'Bahamas', 'Honduras', 'Hong Kong', 'Ireland', 'Kenya', 'Kuwait', 'Morocco', 'New Zealand', 'Uruguay', 'Austria', 'Belgium', 'Czech Republic', 'Denmark', 'Estonia', 'Finland', 'France', 'Germany', 'Greece', 'Hungary', 'Iceland', 'Italy', 'Latvia', 'Liechtenstein', 'Lithuania', 'Luxembourg', 'Malta', 'Netherlands', 'Norway', 'Poland', 'Portugal', 'Slovakia', 'Slovenia', 'Spain', 'Sweden', 'Switzerland', 'Albania', 'Bolivia', 'Bosnia and Herzegovina', 'Brazil', 'Chile', 'Colombia', 'Costa Rica', 'Guatemala', 'Japan', 'Moldova', 'Nicaragua', 'Serbia', 'South Africa', 'Ukraine', 'Venezuela', 'Belize', 'Lebanon', 'Egypt', 'South Korea', 'United Arab Emirates', 'Dominica', 'Philippines', 'Thailand', 'Bahrain']",Andorra,,46418.42,1948000,20,42.546245,1.601554,0
"['Barbados', 'Dominica', 'Peru', 'Panama', 'Fiji', 'Argentina', 'Bahamas', 'Benin', 'Guyana', 'Honduras', 'Ireland', 'Kenya', 'Malaysia', 'Uruguay', 'Bolivia', 'Botswana', 'Brazil', 'Chile', 'Colombia', 'Costa Rica', 'Guatemala', 'Malawi', 'Nicaragua', 'Paraguay', 'Venezuela', 'Belize', 'Turkey', 'Indonesia', 'Thailand', 'Philippines']",South Africa,ZAF,6886.29,9537000,710,-30.559482,22.937506,5168000
"['Bolivia', 'Serbia', 'Antigua and Barbuda', 'Egypt', 'Russia', 'Barbados', 'Dominica']",Cuba,CUB,18796.19,2829000,192,21.521757,-77.781167,287000
"['New Zealand', 'Barbados', 'Canada', 'Dominica', 'United Kingdom', 'Peru', 'Mexico', 'Panama', 'Fiji', 'Argentina', 'Bahamas', 'Guyana', 'Honduras', 'Hong Kong', 'Ireland', 'Malaysia', 'Morocco', 'Turkey', 'Uruguay', 'Austria', 'Belgium', 'Czech Republic', 'Denmark', 'Estonia', 'Finland', 'France', 'Germany', 'Greece', 'Hungary', 'Iceland', 'Italy', 'Latvia', 'Liechtenstein', 'Lithuania', 'Luxembourg', 'Malta', 'Netherlands', 'Norway', 'Poland', 'Portugal', 'Slovakia', 'Slovenia', 'Spain', 'Sweden', 'Switzerland', 'Albania', 'Bangladesh', 'Bolivia', 'Bosnia and Herzegovina', 'Botswana', 'Chile', 'Colombia', 'Costa Rica', 'Guatemala', 'Japan', 'Malawi', 'Nicaragua', 'Serbia', 'South Africa', 'South Korea', 'Venezuela', 'Antigua and Barbuda', 'Belize', 'Lebanon', 'Brunei', 'Thailand', 'United Arab Emirates', 'Philippines', 'Bahrain']",Australia,AUS,43202.37,6382000,36,-25.274398,133.775136,8768000
"['Albania', 'Andorra', 'Argentina', 'Armenia', 'Austria', 'Bahamas', 'Barbados', 'Belgium', 'Belize', 'Bolivia', 'Botswana', 'Brazil', 'Brunei', 'Bulgaria', 'Canada', 'Chile', 'Colombia', 'Comoros', 'Croatia', 'Cyprus', 'Denmark', 'Dominica', 'Ecuador', 'Estonia', 'Fiji', 'Finland', 'France', 'Gambia', 'Georgia', 'Germany', 'Gibraltar', 'Greece', 'Grenada', 'Guatemala', 'Haiti', 'Honduras', 'Hungary', 'Iceland', 'Ireland', 'Israel', 'Ireland', 'Italy', 'Jamaica', 'Japan', 'Kiribati', 'Kyrgyzstan', 'Latvia', 'Liechtenstein', 'Lithuania', 'Luxembourg', 'Macedonia', 'Malaysia', 'Maldives', 'Malta', 'Mauritius', 'Mexico', 'Moldova', 'Morocco', 'Netherlands', 'Nicaragua', 'Norway', 'Panama', 'Paraguay', 'Peru', 'Philippines', 'Portugal', 'Romania', 'Serbia', 'Seychelles', 'Singapore', 'Slovakia', 'Slovenia', 'Spain', 'Swaziland', 'Sweden', 'Switzerland', 'Tanzania', 'Thailand', 'Tunisia', 'Ukraine', 'Uruguay', 'Venezuela']",Russia,RUS,14611.7,30792000,643,61.52401,105.318756,54069000
"['Antigua and Barbuda', 'Barbados', 'Canada', 'Dominica', 'Hong Kong', 'Peru', 'Mexico', 'Panama', 'Fiji', 'Argentina', 'Bahamas', 'Guyana', 'Honduras', 'Kenya', 'Kuwait', 'Morocco', 'Uruguay', 'Albania', 'Bolivia', 'Bosnia and Herzegovina', 'Botswana', 'Brazil', 'Chile', 'Colombia', 'Costa Rica', 'Guatemala', 'Malawi', 'Moldova', 'Nicaragua', 'Paraguay', 'Serbia', 'South Africa', 'Venezuela', 'Belize', 'Lebanon', 'Egypt', 'Indonesia', 'Thailand', 'United Arab Emirates']",British Virgin Islands,,38500,536000,92,18.420695,-64.639968,0
"['Peru', 'Mexico', 'Panama', 'Fiji', 'Argentina', 'Bahamas', 'Honduras', 'Ireland', 'Japan', 'Kenya', 'Malaysia', 'Austria', 'Belgium', 'Denmark', 'Estonia', 'Finland', 'France', 'Germany', 'Greece', 'Hungary', 'Iceland', 'Italy', 'Latvia', 'Liechtenstein', 'Lithuania', 'Luxembourg', 'Malta', 'Netherlands', 'Norway', 'Poland', 'Portugal', 'Slovakia', 'Slovenia', 'Spain', 'Sweden', 'Switzerland', 'Barbados', 'Bolivia', 'Botswana', 'Brazil', 'Chile', 'Colombia', 'Costa Rica', 'Guatemala', 'Nicaragua', 'Paraguay', 'Russia', 'Serbia', 'Venezuela', 'Belize', 'Egypt', 'Dominica', 'Philippines']",Uruguay,URY,16350.73,2683000,858,-32.522779,-55.765835,2281000
"['Antigua and Barbuda', 'Armenia', 'Azerbaijan', 'Bahamas', 'Bangladesh', 'Barbados', 'Belarus', 'Belize', 'Bermuda', 'Botswana', 'British Virgin Islands', 'Cambodia', 'Cayman Islands', 'Comoros', 'Costa Rica', 'Djibouti', 'Dominica', 'Dominican Republic', 'Timor-Leste', 'Ecuador', 'Egypt', 'Fiji', 'Georgia', 'Gibraltar', 'Grenada', 'Haiti', 'Hong Kong', 'Iraq', 'Ireland', 'Jamaica', 'Jordan', 'Kenya', 'Laos', 'Lesotho', 'Macau', 'Madagascar', 'Malawi', 'Malaysia', 'Maldives', 'Mauritius', 'Nepal', 'Nicaragua', 'Papua New Guinea', 'Peru', 'Philippines', 'Seychelles', 'Singapore', 'South Korea', 'Tanzania', 'Tunisia', 'Uganda', 'United Kingdom', 'Zimbabwe']",Kiribati,,1650.5,5900,296,-3.370417,-168.734039,0
"['Bahamas', 'Barbados', 'Canada', 'Dominica', 'Peru', 'Mexico', 'Panama', 'Fiji', 'Argentina', 'Guyana', 'Honduras', 'Ireland', 'Kenya', 'Kuwait', 'Malaysia', 'Morocco', 'Turkey', 'Uruguay', 'Austria', 'Belgium', 'Denmark', 'Estonia', 'Finland', 'France', 'Germany', 'Greece', 'Hungary', 'Iceland', 'Italy', 'Latvia', 'Liechtenstein', 'Lithuania', 'Luxembourg', 'Malta', 'Netherlands', 'Norway', 'Poland', 'Portugal', 'Slovakia', 'Slovenia', 'Spain', 'Sweden', 'Switzerland', 'Albania', 'Bangladesh', 'Bolivia', 'Botswana', 'Brunei', 'Chile', 'Colombia', 'Costa Rica', 'Guatemala', 'Japan', 'Malawi', 'Moldova', 'Nicaragua', 'Serbia', 'Ukraine', 'Venezuela', 'Belize', 'Lebanon', 'Egypt', 'Indonesia', 'Thailand', 'Philippines', 'Bahrain']",United States,USA,53041.98,69768000,840,37.09024,-95.712891,61569000
"['Bahrain', 'Kuwait', 'Panama', 'Fiji', 'Egypt', 'Kenya', 'Lebanon', 'Malaysia', 'Morocco', 'New Zealand', 'Bolivia', 'Colombia', 'Guatemala', 'Nicaragua', 'Hong Kong', 'Brunei', 'Indonesia', 'South Korea', 'Thailand', 'Dominica', 'Philippines']",United Arab Emirates,ARE,59845.26,0,784,23.424076,53.847818,0
"['Barbados', 'Dominica', 'Fiji', 'Benin', 'Kenya', 'Niger', 'Cameroon']",Nigeria,NGA,3005.5,600000,566,9.081999,8.675277,0
"['Peru', 'Panama', 'Argentina', 'Bahamas', 'Honduras', 'Hong Kong', 'Uruguay', 'Bolivia', 'Brazil', 'Chile', 'Colombia', 'Paraguay', 'South Africa', 'Venezuela', 'Malaysia', 'Egypt', 'Indonesia', 'South Korea', 'Dominica', 'Philippines']",Ecuador,ECU,10889.99,1364000,218,-1.831239,-78.183406,1138000
"['Sri Lanka', 'Latvia', 'Liechtenstein', 'Lithuania', 'Luxembourg', 'Austria', 'Malta', 'Netherlands', 'Norway', 'Poland', 'Portugal', 'Romania', 'Slovakia', 'Slovenia', 'Spain', 'Sweden', 'Switzerland', 'Belgium', 'United Kingdom', 'Bulgaria', 'Croatia', 'Cyprus', 'Czech Republic', 'Denmark', 'Estonia', 'Finland', 'France', 'Germany', 'Hungary', 'Iceland', 'Ireland', 'Italy', 'Australia', 'United States', 'Macedonia', 'Malaysia', 'Mauritius', 'Mexico', 'Moldova', 'Morocco', 'Bahamas', 'New Zealand', 'Nicaragua', 'Panama', 'Paraguay', 'Peru', 'Philippines', 'Barbados', 'Serbia', 'Singapore', 'South Africa', 'Swaziland', 'Thailand', 'Tunisia', 'Turkey', 'Ukraine', 'Uruguay', 'Belize', 'Venezuela', 'Bolivia', 'Bosnia and Herzegovina', 'Botswana', 'Brazil', 'Brunei', 'Albania', 'Canada', 'Chile', 'Colombia', 'Costa Rica', 'Andorra', 'Dominica', 'Dominican Republic', 'Ecuador', 'Fiji', 'Gambia', 'Georgia', 'Antigua and Barbuda', 'Grenada', 'Guatemala', 'Haiti', 'Honduras', 'Argentina', 'Israel', 'Jamaica', 'Japan', 'Armenia', 'Kiribati', 'South Korea', 'Kyrgyzstan', 'Papua New Guinea', 'United Arab Emirates', 'Seychelles']",Greece,GRC,21965.9,17920000,300,39.074208,21.824312,3835000
"['Benin', 'Kenya', 'Bangladesh', 'Bolivia', 'Malaysia', 'South Africa', 'Dominica', 'Philippines', 'Hong Kong']",Gabon,GAB,19264.34,0,266,-0.803689,11.609444,0
"['Albania', 'Andorra', 'Argentina', 'Armenia', 'Austria', 'Bahamas', 'Barbados', 'Belgium', 'Belize', 'Bolivia', 'Brazil', 'Brunei', 'Bulgaria', 'Canada', 'Chile', 'Colombia', 'Croatia', 'Cyprus', 'Denmark', 'Dominica', 'Ecuador', 'Estonia', 'Fiji', 'Finland', 'France', 'Georgia', 'Germany', 'Greece', 'Grenada', 'Guatemala', 'Guyana', 'Haiti', 'Honduras', 'Hungary', 'Iceland', 'Ireland', 'Israel', 'Ireland', 'Italy', 'Jamaica', 'Japan', 'Kiribati', 'Kyrgyzstan', 'Latvia', 'Lesotho', 'Liechtenstein', 'Lithuania', 'Luxembourg', 'Macedonia', 'Malawi', 'Malaysia', 'Malta', 'Mauritius', 'Mexico', 'Moldova', 'Morocco', 'Netherlands', 'Nicaragua', 'Norway', 'Panama', 'Paraguay', 'Peru', 'Philippines', 'Poland', 'Romania', 'Serbia', 'Seychelles', 'Singapore', 'Slovakia', 'Slovenia', 'Spain', 'Swaziland', 'Sweden', 'Switzerland', 'Thailand', 'Timor-Leste', 'Tunisia', 'Ukraine', 'Uruguay', 'Venezuela']",Portugal,PRT,21738.29,8097000,620,39.399872,-8.224454,20989000
"['Antigua and Barbuda', 'Barbados', 'Dominica', 'Guyana', 'United Kingdom', 'Peru', 'Mexico', 'Panama', 'Fiji', 'Bahamas', 'Honduras', 'Hong Kong', 'Ireland', 'Kenya', 'Uruguay', 'Botswana', 'Chile', 'Colombia', 'Costa Rica', 'Guatemala', 'Malawi', 'Venezuela', 'Lebanon', 'Malaysia', 'Egypt', 'South Africa']",Belize,BLZ,8486.9,294000,84,17.189877,-88.49765,0
"['Austria', 'Belgium', 'Bulgaria', 'Cyprus', 'Czech Republic', 'Denmark', 'Estonia', 'Finland', 'France', 'Germany', 'Greece', 'Hungary', 'Iceland', 'Ireland', 'Italy', 'Latvia', 'Liechtenstein', 'Lithuania', 'Luxembourg', 'Malta', 'Netherlands', 'Poland', 'Portugal', 'Romania', 'Slovakia', 'Slovenia', 'Spain', 'Sweden', 'Switzerland', 'United Kingdom', 'Bahamas', 'Canada', 'Peru', 'Mexico', 'Panama', 'Fiji', 'Antigua and Barbuda', 'Argentina', 'Barbados', 'Dominica', 'Guyana', 'Honduras', 'Hong Kong', 'Japan', 'Kenya', 'Kuwait', 'Malaysia', 'Morocco', 'New Zealand', 'Niger', 'Turkey', 'Uruguay', 'Albania', 'Bangladesh', 'Bolivia', 'Bosnia and Herzegovina', 'Botswana', 'Brazil', 'Chile', 'Colombia', 'Costa Rica', 'Guatemala', 'Malawi', 'Moldova', 'Nicaragua', 'Paraguay', 'Serbia', 'South Africa', 'South Korea', 'Ukraine', 'Venezuela', 'Belize', 'Lebanon', 'Brunei', 'Egypt', 'Indonesia', 'Thailand', 'Philippines', 'Bahrain']",Norway,NOR,100898.4,0,578,60.472024,8.468946,0
"['Albania', 'Andorra', 'Argentina', 'Austria', 'Bahamas', 'Barbados', 'Belgium', 'Belize', 'Bolivia', 'Brazil', 'Bulgaria', 'Chile', 'Colombia', 'Croatia', 'Cyprus', 'Denmark', 'Dominica', 'Dominican Republic', 'Ecuador', 'Estonia', 'Finland', 'France', 'Georgia', 'Germany', 'Greece', 'Guatemala', 'Guyana', 'Honduras', 'Hungary', 'Iceland', 'Ireland', 'Israel', 'Italy', 'Jamaica', 'Latvia', 'Liechtenstein', 'Lithuania', 'Luxembourg', 'Macedonia', 'Malaysia', 'Malta', 'Mauritius', 'Mexico', 'Netherlands', 'Nicaragua', 'Norway', 'Paraguay', 'Peru', 'Philippines', 'Poland', 'Portugal', 'Romania', 'Russia', 'Singapore', 'Slovakia', 'Slovenia', 'Spain', 'Sweden', 'Switzerland', 'Turkey', 'Ukraine', 'Uruguay', 'Venezuela']",Panama,PAN,11036.8,1658000,591,8.537981,-80.782127,619000
"['Canada', 'Peru', 'Mexico', 'Panama', 'Fiji', 'Argentina', 'Bahamas', 'Dominica', 'Guyana', 'Honduras', 'Hong Kong', 'Ireland', 'Kenya', 'Kuwait', 'Malaysia', 'Morocco', 'Austria', 'Belgium', 'Denmark', 'Estonia', 'Finland', 'France', 'Germany', 'Greece', 'Hungary', 'Iceland', 'Italy', 'Latvia', 'Liechtenstein', 'Lithuania', 'Luxembourg', 'Malta', 'Netherlands', 'Norway', 'Poland', 'Portugal', 'Slovakia', 'Slovenia', 'Spain', 'Sweden', 'Switzerland', 'Albania', 'Bangladesh', 'Barbados', 'Bolivia', 'Botswana', 'Brazil', 'Chile', 'Colombia', 'Guatemala', 'Japan', 'Malawi', 'Nicaragua', 'Lebanon', 'Brunei', 'Egypt', 'Indonesia', 'Paraguay', 'Uruguay', 'Philippines']",South Korea,KOR,25976.95,12176000,410,35.907757,127.766922,14846000
"['Sri Lanka', 'Bahrain', 'Liechtenstein', 'Lithuania', 'Luxembourg', 'Malawi', 'Malaysia', 'Austria', 'Malta', 'Mauritius', 'Moldova', 'Netherlands', 'Nicaragua', 'Bahamas', 'Norway', 'Panama', 'Paraguay', 'Peru', 'Philippines', 'Poland', 'Portugal', 'Romania', 'Serbia', 'Singapore', 'Slovakia', 'Slovenia', 'South Africa', 'Spain', 'Swaziland', 'Barbados', 'Sweden', 'Switzerland', 'Tunisia', 'United Kingdom', 'Belgium', 'Uruguay', 'Venezuela', 'Belize', 'Bolivia', 'Bosnia and Herzegovina', 'Botswana', 'Brazil', 'Bulgaria', 'Albania', 'Canada', 'Chile', 'Colombia', 'Costa Rica', 'Croatia', 'Cyprus', 'Czech Republic', 'Denmark', 'Andorra', 'Dominica', 'Dominican Republic', 'Ecuador', 'Estonia', 'Fiji', 'Finland', 'France', 'Gambia', 'Georgia', 'Germany', 'Greece', 'Grenada', 'Antigua and Barbuda', 'Guatemala', 'Haiti', 'Honduras', 'Hungary', 'Iceland', 'Argentina', 'Ireland', 'Israel', 'Italy', 'Jamaica', 'Kazakhstan', 'Latvia', 'Lesotho', 'Seychelles', 'Madagascar', 'Maldives', 'Nepal', 'Oman', 'Bangladesh', 'Tanzania', 'Timor-Leste', 'Uganda', 'Burkina Faso', 'Cambodia', 'Cape Verde', 'Comoros', 'Djibouti', 'Jordan', 'Kenya', 'Kuwait', 'Laos', 'Lebanon']",Gibraltar,,0,0,292,36.137741,-5.345374,0
"['Barbados', 'Dominica', 'Fiji', 'Bahamas', 'Kenya', 'Bolivia', 'Malawi']",Bangladesh,BGD,2948.01,148000,50,23.684994,90.356331,2254000
"['Antigua and Barbuda', 'Armenia', 'Azerbaijan', 'Bahamas', 'Bangladesh', 'Barbados', 'Belarus', 'Cambodia', 'Comoros', 'Costa Rica', 'Cuba', 'Djibouti', 'Dominica', 'Timor-Leste', 'Ecuador', 'Egypt', 'Fiji', 'Georgia', 'Grenada', 'Haiti', 'Iraq', 'Jamaica', 'Jordan', 'Kazakhstan', 'Kenya', 'Kyrgyzstan', 'Laos', 'Lebanon', 'Macau', 'Madagascar', 'Malaysia', 'Maldives', 'Mauritius', 'Nepal', 'Nicaragua', 'Oman', 'Peru', 'Russia', 'Seychelles', 'Sri Lanka', 'Tajikistan', 'Tanzania', 'Tunisia', 'Turkey', 'Uganda', 'Ukraine', 'Uzbekistan']",Moldova,MDA,2239.6,11500,498,47.411631,28.369885,93000
"['Albania', 'Andorra', 'Argentina', 'Austria', 'Bahamas', 'Barbados', 'Belgium', 'Belize', 'Botswana', 'Brazil', 'Brunei', 'Bulgaria', 'Cambodia', 'Canada', 'Chile', 'China', 'Colombia', 'Croatia', 'Cyprus', 'Denmark', 'Dominica', 'Ecuador', 'Estonia', 'Fiji', 'Finland', 'France', 'Gambia', 'Georgia', 'Ghana', 'Germany', 'Greece', 'Grenada', 'Guatemala', 'Haiti', 'Honduras', 'Hungary', 'Iceland', 'Indonesia', 'Ireland', 'Israel', 'Italy', 'Jamaica', 'Japan', 'Kenya', 'Kiribati', 'Kyrgyzstan', 'Laos', 'Latvia', 'Lesotho', 'Liechtenstein', 'Lithuania', 'Luxembourg', 'Macedonia', 'Malawi', 'Malaysia', 'Malta', 'Mauritius', 'Mexico', 'Moldova', 'Morocco', 'Netherlands', 'Nicaragua', 'Norway', 'Panama', 'Peru', 'Philippines', 'Poland', 'Portugal', 'Romania', 'Serbia', 'Slovakia', 'Slovenia', 'Spain', 'Swaziland', 'Sweden', 'Switzerland', 'Tanzania', 'Thailand', 'Tunisia', 'Turkey', 'Uganda', 'Uruguay', 'Zimbabwe']",Singapore,,55182.48,11899000,702,1.352083,103.819836,8647000
"['Austria', 'Belgium', 'Bulgaria', 'Cyprus', 'Czech Republic', 'Denmark', 'Finland', 'France', 'Germany', 'Greece', 'Hungary', 'Iceland', 'Ireland', 'Italy', 'Latvia', 'Liechtenstein', 'Lithuania', 'Luxembourg', 'Malta', 'Netherlands', 'Norway', 'Poland', 'Portugal', 'Romania', 'Slovakia', 'Slovenia', 'Spain', 'Sweden', 'Switzerland', 'United Kingdom', 'Canada', 'Peru', 'Mexico', 'Panama', 'Fiji', 'Antigua and Barbuda', 'Argentina', 'Bahamas', 'Barbados', 'Honduras', 'Hong Kong', 'Malaysia', 'Morocco', 'New Zealand', 'Albania', 'Bangladesh', 'Bolivia', 'Bosnia and Herzegovina', 'Botswana', 'Brunei', 'Chile', 'Colombia', 'Costa Rica', 'Guatemala', 'Japan', 'Moldova', 'Paraguay', 'Serbia', 'South Korea', 'Ukraine', 'Venezuela', 'Belize', 'Lebanon']",Estonia,EST,25823.39,2868000,233,58.595272,25.013607,1166000
"['Algeria', 'Antigua and Barbuda', 'Armenia', 'Azerbaijan', 'Bahamas', 'Barbados', 'Belarus', 'Belize', 'Bermuda', 'Botswana', 'British Virgin Islands', 'Brunei', 'Cambodia', 'Cayman Islands', 'Comoros', 'Costa Rica', 'Djibouti', 'Dominica', 'Timor-Leste', 'Ecuador', 'Egypt', 'Fiji', 'Georgia', 'Gibraltar', 'Grenada', 'Haiti', 'Hong Kong', 'India', 'Indonesia', 'Iraq', 'Ireland', 'Jordan', 'Kenya', 'Laos', 'Lesotho', 'Macau', 'Madagascar', 'Malawi', 'Malaysia', 'Mauritius', 'Nepal', 'Nicaragua', 'Pakistan', 'Papua New Guinea', 'Philippines', 'Seychelles', 'Singapore', 'South Africa', 'Sri Lanka', 'Tanzania', 'Thailand', 'Tunisia', 'Turkey', 'Uganda', 'United Kingdom', 'Zimbabwe']",Maldives,,6665.8,1125000,462,3.202778,73.22068,0
"['Bahrain', 'Dominica', 'Haiti', 'Seychelles', 'Madagascar', 'Maldives', 'Nepal', 'Tanzania', 'Timor-Leste', 'Uganda', 'Cape Verde', 'Comoros', 'Djibouti', 'Kenya']",Pakistan,PAK,1275.3,0,586,30.375321,69.345116,0
"['Austria', 'Bulgaria', 'Cyprus', 'Czech Republic', 'Denmark', 'Estonia', 'Finland', 'France', 'Germany', 'Greece', 'Hungary', 'Iceland', 'Ireland', 'Italy', 'Latvia', 'Liechtenstein', 'Lithuania', 'Luxembourg', 'Malta', 'Netherlands', 'Norway', 'Poland', 'Portugal', 'Romania', 'Slovakia', 'Slovenia', 'Spain', 'Sweden', 'Switzerland', 'United Kingdom', 'Bahamas', 'Canada', 'Peru', 'Mexico', 'Panama', 'Fiji', 'Antigua and Barbuda', 'Argentina', 'Barbados', 'Dominica', 'Guyana', 'Honduras', 'Hong Kong', 'Japan', 'Malaysia', 'Morocco', 'New Zealand', 'Turkey', 'Uruguay', 'Albania', 'Bangladesh', 'Bolivia', 'Bosnia and Herzegovina', 'Botswana', 'Brazil', 'Brunei', 'Chile', 'Colombia', 'Costa Rica', 'Guatemala', 'Malawi', 'Moldova', 'Nicaragua', 'Paraguay', 'Serbia', 'South Africa', 'South Korea', 'Ukraine', 'Venezuela', 'Lebanon', 'Egypt', 'Indonesia', 'Thailand', 'Philippines', 'Bahrain']",Belgium,BEL,41574.76,7684000,56,50.503887,4.469936,10818000
"['Armenia', 'Azerbaijan', 'Bangladesh', 'Belarus', 'Benin', 'Bermuda', 'Burkina Faso', 'Cambodia', 'Cape Verde', 'Comoros', 'Djibouti', 'Dominica', 'Timor-Leste', 'Ecuador', 'Egypt', 'Gambia', 'Georgia', 'Ghana', 'Haiti', 'Iraq', 'Jordan', 'Kenya', 'Laos', 'Liberia', 'Macau', 'Madagascar', 'Malaysia', 'Maldives', 'Morocco', 'Nepal', 'Nicaragua', 'Niger', 'Nigeria', 'Papua New Guinea', 'Philippines', 'Seychelles', 'Singapore', 'Tanzania', 'Tunisia', 'Uganda']",Guinea,GIN,523.1,56000,324,9.945587,-9.696645,0
"['Antigua and Barbuda', 'Armenia', 'Azerbaijan', 'Bahamas', 'Bangladesh', 'Barbados', 'Belarus', 'Belize', 'Bermuda', 'Botswana', 'British Virgin Islands', 'Cambodia', 'Cayman Islands', 'Comoros', 'Djibouti', 'Dominica', 'Timor-Leste', 'Ecuador', 'Egypt', 'Fiji', 'Gambia', 'Georgia', 'Gibraltar', 'Grenada', 'Haiti', 'Hong Kong', 'Iraq', 'Ireland', 'Israel', 'Jamaica', 'Jordan', 'Kenya', 'Kiribati', 'Laos', 'Lesotho', 'Macau', 'Madagascar', 'Malaysia', 'Maldives', 'Mauritius', 'Nepal', 'Nicaragua', 'Philippines', 'Seychelles', 'Singapore', 'South Africa', 'Swaziland', 'Tanzania', 'Uganda', 'Zimbabwe']",Malawi,MWI,226.5,0,454,-13.254308,34.301525,0
"['Albania', 'Andorra', 'Argentina', 'Austria', 'Bahamas', 'Belgium', 'Belize', 'Bolivia', 'Brazil', 'Bulgaria', 'Chile', 'Colombia', 'Croatia', 'Cyprus', 'Denmark', 'Dominica', 'Ecuador', 'Estonia', 'Fiji', 'Finland', 'France', 'Germany', 'Greece', 'Guatemala', 'Haiti', 'Hong Kong', 'Honduras', 'Hungary', 'Iceland', 'Ireland', 'Israel', 'Italy', 'Jamaica', 'Latvia', 'Liechtenstein', 'Lithuania', 'Luxembourg', 'Macedonia', 'Malaysia', 'Malta', 'Mauritius', 'Mexico', 'Netherlands', 'Nicaragua', 'Norway', 'Panama', 'Peru', 'Philippines', 'Poland', 'Portugal', 'Romania', 'Russia', 'Singapore', 'Slovakia', 'Slovenia', 'Spain', 'Sweden', 'Switzerland', 'Turkey', 'Ukraine', 'Uruguay', 'Venezuela']",Paraguay,PRY,4264.7,610000,600,-23.442503,-58.443832,440000
"['Barbados', 'Canada', 'Dominica', 'United Kingdom', 'Fiji', 'Bahamas', 'Hong Kong', 'Ireland', 'Kenya', 'Bangladesh', 'Bolivia', 'Malawi', 'South Africa', 'Antigua and Barbuda', 'Belize', 'Malaysia', 'Philippines']",Botswana,BWA,15751.9,0,72,-22.328474,24.684866,0
